ID;Lat;Lng;Stops;Name;Info;Street;Area;City;Pikas2013.2.9
5489;5685334;2433143;5490,5346
5501;5685942;2437132;5502,5497
5502;5685926;2437134;5501,5496
5503;5686101;2435877;5504,5497
5504;5686092;2435869;5503,5494
5505;5686361;2435118;5506,5495
5506;5686386;2435065;5505,5504
5509;5687545;2417938;5510,1301
5510;5687532;2417918;5509,5301,5508
1557;5688488;2405396;1558,1392,8089
7749g;5694600;2412879;7749,2074,2075;Abrenes iela (izkāpšana)
5020;5690087;2440127;5018,5139;Apvedceļš
5018;5690127;2440154;5020,5147
5492;5685742;2433058;5493,0094;Bērnudārzs
5493;5685717;2433112;5492,5491
5496;5685781;2438294;5502;Brieža iela
9083;5697504;2385668;9084;Bulduri
9084;5697469;2385672;9083,9086,5272
9081;5696961;2377595;9087;Dubulti
5110;5691634;2435144;5111;Dzelzceļa pārbrauktuve
5111;5691641;2435147;5110,5112,4771a
5115;5685995;2434884;5114,5346
5114;5686026;2434932;5115,5494;Dzelzceļa stacija
9085;5697339;2381570;9086,9088;Dzintari
9086;5697323;2381589;9085,9084
4159;5685696;2406420;8052,8087;Gaismas
5138;5689570;2436523;5139,5283;Guntiņas
5139;5689619;2436566;5138,5341,5020
5146;5689188;2447180;5147;Jaksti
5147;5689210;2447033;5146,5018
5153;5694790;2430420;5154,4753;Jaunceltnes
5154;5694807;2430446;5153,5123,5184
5184;5695287;2431170;5183,5154;Krustojums
5183;5695291;2431163;5184,1525
0730;5696532;2407985;1228,3065;Ķīpsala
9087;5697157;2380515;9088,9081;Majori
9088;5697135;2380536;9087,9085
5490;5685518;2433154;5491,5489;P.U. Dzīvoklis
5491;5685550;2433100;5490,5493
5283;5688607;2435871;5138,5504;Pagr.uz Zeltiņiem
5291;5692644;2387440;5042;Pēčas
7976;5693487;2422006;7977,7978;Pļavnieku kapi
7977;5693497;2421978;7976,0487,0043
5340;5690803;2436463;5341,5353;Rūpnīca "Saurieši"
5341;5690710;2436354;5340,5139
5346;5685388;2433572;5489,5115;Salaspils skola
5353;5691271;2436338;5352,5340;Saurieši
5352;5691317;2436334;5353,4771
4771a;5691823;2436195;4771,5111
5504;5687107;2434318;5506,5283;Silava
5507;5687088;2418560;5508;Skola
5508;5687074;2418518;5507,5275,5510
5494;5686089;2435191;5495,5114,5504;Stacija Salaspils
5495;5686111;2435172;5494,5505
8087;5686859;2406646;8089,4159;Tīraine
8089;5687045;2406752;8087,1557,1312
1558;5688817;2406414;1557,5333;Tīraines staļļi
2128;5692765;2437400;5015;Tuberkulozes slimnīca
5032;5692910;2432064;5378,5031;Ulbrokas vidusskola
s18259;5701948;2412987;0239;Vītrupes iela
5497;5686012;2436627;5500,5501,5503;ZA Centrs
5500;5686027;2436635;5497
5003;5694580;2410534;3012,5185;11.novembra krastmala;;11.novembra krastmala
1025a;5694548;2411307;1025,6684,3009;13.janvāra iela;;13.janvāra iela
1025b;5694571;2411373;1025,3010,3165
1025;5694562;2411349;1025b,3100,1025a
1027;5694674;2411642;1251b,3126
1251a;5694657;2411682;1251b,0079;Stockmann centrs
1251b;5694653;2411673;1251a,1027,3165
0529;5703789;2418477;0044,0173;8.šķērslīnija;;8.šķērslīnija
0173;5704155;2418853;0529;Jaunciema kapi
1297;5688156;2415959;6445,1298;Bauskas šoseja;;A 7
8042;5677461;2424103;8043,8045;Gūģi
8043;5677635;2424301;8042
8044;5673601;2425213;8045,7901;Lipši
8045;5673922;2425349;8044,8042
1296;5688442;2415526;5259,6685;Pagrieziens  uz Baložiem
5259;5688542;2415440;1307,1296,5323;Pagrieziens uz Baložiem
5323;5688994;2414806;5322,5259;Rāmava
5322;5689092;2414724;5324,5323
6445;5688212;2415827;6685,1297;Titurga
6685;5688234;2415862;6445,1296
2038;5696280;2412539;2032;A.Briāna iela;;A.Briāna iela
2032;5696289;2412518;2038,0027,0066;K. Valdemāra iela
2039;5696541;2413258;3229,0020;Miera iela
0003;5696350;2414954;0345,3133,3120;A.Čaka iela/Pērnavas iela;;A.Čaka iela
5053;5695154;2412760;0182,0147;Blaumaņa iela
0182;5695061;2412548;0114,5053,2072;Dzirnavu iela
0114;5695069;2412534;0182,3124
0148;5695348;2413126;2063,2064;Ģertrūdes iela
0147;5695291;2412990;2008,2003,5053
2063;5695349;2413099;0148,2008,2003
2064;5695365;2413159;0148,1492
0273;5695658;2413706;0270,5207;Matīsa iela
0270;5695640;2413644;0273,5462,3122
5207;5695713;2413806;0273,0470
0345;5696337;2414980;0003,5292;Pērnavas iela
0470;5695902;2414160;0469,5207;Tallinas iela
0469;5695931;2414186;0470,2041,2029
5342;5694607;2420867;5456,9100;A. Saharova iela;;A.Deglava iela
5343;5694664;2420523;5470,5140,0371
5035a;5694335;2422966;5036a,0289,9090;Baltinavas iela
5036a;5694347;2422949;5035a,5197
0090;5694944;2418413;5088,5469,7991;Dārzciema iela
5088;5694887;2418751;0090,5457,0280
0098;5695334;2415519;5090,0451;Daugavas stadions
5090;5695329;2415468;0098,2025
5140;5694743;2419842;0479,5343;Ilūkstes iela
5141;5694809;2419432;0479,5457,0159
0245;5695354;2414757;0244,0274;Lienes iela
0244;5695366;2414789;0245,2078,2026
5197;5694422;2422305;5198,5036a;Liepiņas
5198;5694451;2422174;5197,0413,9093
0310;5695105;2417103;0308,0451;Nīcgales iela
0308;5695103;2417223;0310,0307,2060
9100;5694578;2421190;9101,5342;Ulbrokas iela 13
9101;5694549;2421291;9100,0413
7990;5695039;2417617;7991,0307;Viršu iela
7991;5695047;2417630;7990,0090
0218;5703607;2409708;0040,0255;Kreimeņu iela;;A.Dombrovska
0255;5703479;2410161;0254,0218;Martas Rinkas iela
0254;5703403;2410404;0255,0283,0516
0283;5703225;2410897;0282,0254;Melīdas iela
0282;5703155;2410991;0283,0348
5456;5694534;2420681;5470,5342;A.Deglava iela;;A.Saharova iela
5470;5694540;2420630;5456,5343,5455;A.Saharova iela
5455;5694065;2420482;5471,0004,5470;Akadēmiķa M. Keldiša iela
5471;5694069;2420433;5455,0196
0701;5693281;2420159;0492,0359;Pļavnieki
0394;5693783;2420308;0393,0005;Rudens iela
0393;5693736;2420340;0394,0493
0493;5693413;2420203;0492,0393;Veikals "Pļavnieki"
0492;5693297;2420100;0701,0360,0493
5042;5692761;2391544;5041,5369,5291;Beberbeķi;;A5 Rīgas apvedceļš
5041;5692837;2391603;5042,5081
5081;5693667;2391854;5080,5041,4977;Dabas parks
5080;5693688;2391918;5081
4131;5694606;2392294;4132,5273;Pagrieziens uz Piņķiem
4132;5694654;2392392;4131,5279
7749a;5694611;2413008;7749,7749b;Abrenes iela;;Abrenes iela
7749;5694610;2412981;7749a,7749g,7749f
7749e;5694571;2413254;7749d,2006
7749b;5694612;2413036;7749a,7749c
7749c;5694612;2413077;7749b,7749d
7749d;5694605;2413140;7749c,7749e
7749f;5694540;2412959;7749,0149;Abrenes iela (izkāpšana)
1612;5701317;2425937;9094,1556,0295;Ādažu  iela;;Ādažu iela
9094;5701411;2425973;1612,1613;Ādažu iela
1613;5702039;2425867;9094;Bukulti
1668;5700675;2426126;1669,1556;Lejasvīganti
1669;5700672;2426116;1668,0068
2045;5694585;2406186;1116,2046,1238;Āgenskalna iela;;Āgenskalna iela
2046;5694455;2405955;2045,5288;Kafejnīca "Priedes"
1035;5695944;2399569;1062;Imantas D/P;;Airītes iela
2094;5697569;2418796;2100,2099;Aizkraukles iela;;Aizkraukles iela
2099;5697530;2418322;2095,2094
2093;5697728;2419373;0720,2100,0111;Slimnīca
0196;5694044;2419660;0157,5471;Akadēmiķa M. Keldiša iela;;Akadēmiķa M.Keldiša iela
0005;5693909;2420672;0004,0394,0487;Dzeņu iela
0004;5693945;2420660;0005,5455
0032;5705222;2406917;0031,1606,0214;Auda;;Albatrosu iela
0031;5705199;2406840;0032,0017
1072;5695991;2401236;1085,1073;Anniņmuižas bulvāris;;Anniņmuižas bulvāris
1085;5696003;2401386;1072,3032
1071;5696026;2401790;3052,3032;Kleistu iela
1086;5695884;2402189;3033,3051,1458
1077;5695403;2400860;1457,1084,1083;Poliklīnika
1084;5695541;2400891;1077,1076
1433;5694695;2401212;8069,1436;P. Lejiņa iela;;Anniņmuižas iela
8069;5694674;2401072;1433,1445
1432;5694370;2401603;1431,1444;Priedaines iela
1431;5694352;2401616;1432,1428
1537;5693371;2403034;1423,1418;Apuzes iela;;Apuzes iela
1427;5693938;2402250;1428,1430;Jūrkalnes iela
1428;5693946;2402211;1427,1431
1429;5693749;2402548;1430,1426,1418;Šampētera iela
1430;5693773;2402480;1429,1427
1403;5692184;2407432;1404,5133,5221;Asītes iela;;Asītes iela
0013;5704787;2409614;0014,1606;Airu iela;;Atlantijas iela
0014;5704778;2409638;0013,0336,0214
0030;5703786;2408742;0029,0089;Atlantijas iela
0336;5705034;2410159;0337,0014
0029;5703646;2408650;0030,0041,8012
0089;5704160;2408927;0088,0030;D/P "Vecmīlgrāvis"
0088;5704189;2408872;0089,0215
0215;5704443;2409218;0214,0088;Klubs
0214;5704454;2409203;0215,0014,0032
0337;5705032;2410183;0336,0304,0119;Pagrieziens uz Vecāķiem
2076;5695059;2413272;2071,2007;Avotu iela;;Avotu iela
0272;5695293;2414367;5466,2068;Matīsa iela
2069;5695261;2414163;5466,5461,1493
2070;5695138;2413579;2077,2004;Stabu iela
2077;5695148;2413698;0037,2070
2033;5694572;2407210;5034,1093;Baložu iela;;Baložu iela
1315;5688142;2414019;1309,1316;Meža iela
1309;5688151;2414001;1315,1314
1308;5688332;2414741;1316,1307;Sūkņu stacija
0041;5703631;2409110;0040,0029;Baltāsbaznīcas iela;;Baltāsbaznīcas iela
5010;5693571;2407237;5011,1114;Āgenskalna tirgus;;Bāriņu iela
5011;5693575;2407286;5010,3005
1112;5693682;2407786;3016,3015;E. Smiļģa iela
1242;5693663;2407699;3016,3005,1373
5137;5691462;2414080;3185,5136;Bišumuiža;;Bauskas iela
1272;5691476;2411342;1273,3207;CSDD
1273;5691490;2411261;3206,1272
1280;5691584;2413226;3210,3209;Doles iela
1281;5691594;2413417;3210,3186
5136;5691480;2414068;5137,3186,0162;Gulbju iela
5294;5690852;2414607;1286,5295;Piena kombināts
5295;5691124;2414529;5294,3185
1264;5692243;2409551;1269,2050;Pirmaden
1269;5692215;2409559;1264,3204
5324;5689176;2414820;5322,1322;Rāmava
1292;5689581;2414743;1293,1332,1322;Sarma
1293;5689716;2414737;1292,1289
1274;5691780;2410385;3205,1275;Skaistkalnes iela
1275;5691798;2410368;3190,1274
1277;5691378;2411828;3188,3207;Stērstu iela
1286;5690696;2414627;1287,5294;Štrausi
1287;5690580;2414627;1286,5424,1325
5424;5690251;2414668;1289,1287;Valdlauču centrs
1289;5690124;2414673;5424,1293
1278;5691406;2412141;3208,1279,3188;Ziepniekkalna iela
1279;5691510;2412282;3187,1278
0724;5695684;2411968;7987,0233;Baznīcas iela;;Baznīcas iela
1070;5695753;2402656;3051,1461;Bebru iela;;Bebru iela
1087;5695743;2402837;3034,3035
0021;5699502;2428129;0022,0333;Ambulance;;Berģu iela
0022;5699531;2428096;0021,0389
0129;5697971;2430504;0258,0342;Ezerkrasti
0174;5698563;2429747;0175,0464;Jaunības iela
0175;5698556;2429734;0174,0240
0241;5698311;2430040;0240,0138;Lejasciema iela
0240;5698316;2430054;0241,0175,0258
0258;5697986;2430494;0129,0240;Mākoņu iela
0332;5699010;2429097;0333,0463;Pagrieziens uz Upesciemu
0333;5699027;2429106;0332,0334,0021
0342;5697803;2431086;0129,0438,1524;Pansionāts
0390;5699773;2427707;0389,0227;Rožu iela
0389;5699761;2427699;0390,0022
0464;5698707;2429493;0463,0174,0461;Tadenavas iela
0463;5698764;2429435;0464,0332
1614;5692999;2426235;5320,1476;Saulīši;;Betona iela
1521;5697126;2434095;1522,1523,0494;Apvedceļš;;Biķernieku iela
1522;5697129;2434141;1521,1518
1512;5695627;2425637;1529;Bērnu slimnīca
1529;5695634;2425446;1512,0053
0055;5697261;2416856;0418,0456;Biķernieku iela
1513;5695704;2428789;1528,1527,5087;Brekši
1528;5695724;2428734;1513,0138
1531;5696970;2418457;1532,1510;Burtnieku iela
1532;5696988;2418270;1531,1509
1514;5695747;2429313;1527,1526;Jaunceltne - 1
1527;5695755;2429297;1514,1513
1515;5695918;2429848;1526,1516;Jaunceltne - 2
1526;5695914;2429796;1515,1514
0188;5696500;2420964;0187,0297;Kapi
0187;5696570;2420717;0188,0110
1511;5696801;2419402;1530,2044;Ķeguma iela
1530;5696794;2419492;1511,2056
1510;5696901;2418813;1531,2044;Laimdotas iela
1516;5696060;2430195;1525,1515;Papīrfabrika "Jugla"
1525;5696102;2430336;1516,5183,1524
0378;5695737;2424028;0054,0052,0710;Ratnieki
0379a;5695813;2423597;0054,0409
0409;5695886;2423283;0407,0379a;S.Eizenšteina iela
0407;5695913;2423219;0409,0408,7997
0456;5697142;2417332;0465,0055;Struktoru iela
0465;5697080;2417767;2097,0456;Tālivalža iela
1509;5697037;2417975;2097,0193,1532
1523;5696524;2433034;1524,1521;Upeskalni
1524;5696518;2432951;1523,1525,0342
1290a;5695240;2411427;1290b,0700;Brīvības piemineklis;;Brīvības bulvāris
1290b;5695214;2411386;1290a,0060
0194a;5695377;2411645;0194b,2134,0120;Esplanāde
0194;5695340;2411585;0194b,0194c
0194b;5695348;2411598;0194,0194a
0194c;5695324;2411560;0194,1490
1490;5695303;2411615;0194c,2012;Tērbatas iela
0007;5698381;2420224;0006,3141;Alfa;;Brīvības gatve
0006;5698381;2420178;0007,0222
0038;5697629;2417691;0039,3246,2019;Bajāru iela
0039;5697605;2417567;0038,0455
0057;5699678;2426643;0056,0227;Brīvdabas muzejs
0056;5699670;2426490;0057,0069,5162
0112;5698107;2419254;0111,0221;Dzērbenes iela
0111;5698087;2419141;0112,0208,2093
0419;5697374;2416810;0418,3136;Gustava Zemgala gatve
0418;5697365;2416834;0419,0055,0455
0180;5698957;2424155;3106,0181;Juglas iela
0181;5698997;2424312;0367,0180,5162
5162;5699034;2424525;0181,0056;Juglas tilts
0222;5698225;2419641;0221,0006;Krustabaznīcas iela
0221;5698195;2419497;0222,3140,0112
0227;5699898;2427365;0228,0390,0057;Kultūras nams
0228;5699934;2427381;0227
0301;5698805;2423085;3107,0706,0424;Mārkalnes iela
0267;5698797;2422895;3145,0045
2024;5697789;2418207;2019,2092;Palmu iela
0399;5697107;2415931;3117,3134;Rūpnīca "VEF"
0400;5697185;2416258;3135,3116
0455;5697524;2417350;0039,3137,0418;Struktoru iela
2018a;5698509;2420877;2018,3142,0436;Šmerlis
2018;5698484;2420860;2018a,0435
0436;5698550;2420958;2018a,3109;Šmerļa iela
0045;5698713;2422288;3144,0267;Tirzas iela
0047;5698693;2422007;3108,3247
0208;5697922;2418648;0207,0111;Zemitāna laukums
0207;5697916;2418583;0208,2092,3139
0081;5696538;2414297;0080,3120;Cēsu iela;;Brīvības iela
0080;5696573;2414322;0081,0344,0284
0145;5695685;2412208;7987,1800;Ģertrūdes iela
7987;5695666;2412200;0145,0724,2011
0219;5696792;2415013;2023,0220,3118;K. Barona iela
0220;5696804;2414969;0219
2023;5696800;2415035;0219,3134
0269;5696028;2413045;0268,2021;Matīsa iela
0268;5696029;2413093;0269,3228
2020;5695997;2412952;2021,3225,3227
2021;5695989;2412976;2020,0269
0466;5696252;2413604;2022;Tallinas iela
0468;5696327;2413753;2030,0065
2022;5696267;2413643;0466,0467,2030
5463;5696049;2412416;0067,1800;1.pilsētas slimnīca;;Bruņinieku iela
1494;5695455;2413513;5465,1492,0440;A.Čaka iela
1496;5695867;2412708;1491,3227,1495;Brīvības iela
1493;5695251;2413914;0037,2069;Bruņinieku iela
1495;5695706;2413021;3130,1496,2010;Tērbatas iela
1204;5697229;2404089;1205,1202;Bāze;;Buļļu iela
1205;5697210;2404135;1204,1206
0637;5696479;2405894;0615,0616;Buļļu iela
1220;5696656;2405542;1221,1209
1202;5697496;2403650;1203,1204;DUS
1203;5697517;2403640;1202,0622
0615;5696469;2405949;0637,3057;Dzirciema iela
1221;5696596;2405625;1220,1126,0616
1051;5697598;2403239;1053,1052;Kleistu iela
1053;5697573;2403330;1051,0622,0629
1052;5697730;2402655;1051;Lāčupes kapi
1208;5696900;2405011;1209,1207;Palangas iela
1209;5696857;2405115;1208,1220
0614;5696207;2406379;0638,3104,3058;Saldus iela
0638;5696164;2406501;0614,1227
1206;5696967;2404725;1207,1205;Saulgožu iela
1207;5696963;2404861;1206,1208,1219;Spilves iela
2055;5693174;2409952;1266,2053;Jelgavas iela;;Buru iela
5524;5710195;2420362;5525;Garciems;;Ceļš P1
5525;5710180;2420382;5524,5522,5527
5522;5711488;2424215;5523,5525;Garupe
5523;5711487;2424258;5522,5521
5526;5707802;2415934;5527,0329;Kalngale
5527;5707825;2415906;5526,0500,5525
1518;5696961;2437364;1519,1522;Ferum agro;;Ceļš uz Garkalnes Muceniekiem
1519;5696960;2437396;1518,1517,1520
1517;5697185;2437664;1519;Garkalnes Mucenieki
1520;5696075;2437560;8019,1519;Mucenieki
8067;5695887;2437973;8019,5120,6394
8019;5696057;2437604;1520,8067;Pagrieziens uz Muceniekiem
1320;5689549;2417244;0009,8015,1306;Dārziņi;;Ceļš uz Katlakalna kapiem
0009;5689590;2417347;1320,1321
1321;5689773;2417297;0009,3147;Kooperatīvs "Ziedonis"
8015;5689497;2416647;8016,1320;Mākoņkalns
8016;5689515;2416629;8015,1319
1319;5689428;2415434;1322,8016;Rāmava
1322;5689435;2415329;1319,1292,5324
1300;5687965;2417274;1301,1299;Ādiņas;;Ceļš uz Katlakalnu
1301;5687988;2417376;1300,5509,1303
1303;5688326;2418299;1306,1304,1301;Dzelzskalni
1306;5688340;2418287;1303,1320
1304;5688322;2418973;8056,1305,1303;Kalnavoti
8056;5688310;2418980;1304
1305;5688450;2419302;1304,0513;Katlakalns
1298;5687967;2416756;1299,1297;Vidēji
1299;5687976;2416776;1298,1300
2112;5696310;2413602;0467,0065,3224;Brīvības iela;;Cēsu iela
0467;5696286;2413593;2112,2022;Tallinas iela
0033;5698334;2416020;0428,0315;Augstrozes iela;;Čiekurkalna 1. līnija
0315;5698265;2416659;0316,0033,0350,0085;Čiekurkalna 2. šķērslīnija
0350;5698296;2417347;0082,0315,3250;Čiekurkalna 5. šķērslīnija
0028;5698322;2418107;3139,0104;Čiekurkalna 8. šķērslīnija
0316;5698547;2416629;9105,0082,0315;Čiekurkalna 2. šķērslīnija;;Čiekurkalna 2. līnija
0082;5698571;2417100;0316,0350,0423;Čiekurkalna 4. šķērslīnija
0423;5698604;2417732;0104,0082;Čiekurkalna 6. šķērslīnija
0104;5698629;2418272;0512,0423,0028;Čiekurkalna 9. šķērslīnija
1380;5692144;2404671;1381,0011;Dauguļu iela;;Dāliju iela
1381;5692146;2404535;1380,1382
0139;5698839;2412303;0140,7992;Ganību dambis;;Dambja iela
0140;5698852;2412272;0139,3088,3073
0715;5696545;2400797;3054,1064,3053;Imanta;;Dammes iela
0091;5693326;2418213;0251,0454;Dārzciema iela;;Dārzciema iela
1503;5694488;2418273;5469,1508
0352;5694134;2418165;0351,1508,0453;Pildas iela
1508;5694217;2418215;0352,1503
5469;5694540;2418328;1503,1502,0090;Sesku iela
0454;5693728;2418214;0453,0091;Strautu iela
0453;5693854;2418236;0454,0352
0533;5686764;2427835;0534,0507,0411;27.līnija;;Dārziņu iela
0534;5686779;2427844;0533
0538;5686132;2428522;0537,0541;38.līnija
0537;5686159;2428489;0539,0538,0410
0540;5685986;2429133;0541,0094;46.līnija
0541;5685996;2429111;0540,0538
0094;5685937;2429719;0540,5492;Dārziņi-2
0411;5686335;2428260;0410,0533;Sakņu iela
0410;5686324;2428253;0411,0537,0535
5204;5690536;2405484;5205,5415;Mārupes novada dome;;Daugavas iela
5205;5690612;2405630;5204,1386,5333
5216;5689310;2401550;5217,5440;Mežciems
5316;5689776;2403522;5315,5361;Purmaļi
5362;5690003;2404500;5361,1391,1393;Senči
5415;5690284;2405119;5414,5204;Svētes iela
5414;5690157;2404941;5415,1391
5438;5689063;2400611;5439,5217;Vizmas
5441;5689440;2402160;5440,5315;Zaigas
1131;5697408;2407559;1132,1129;Cementa šifera rūpnīca;;Daugavgrīvas iela
1132;5697491;2407618;1131,1133
5091;5694506;2408178;1244,1106;Daugavgrīvas iela
1228;5696573;2407153;1229,0730,1130;Iļģuciems
1229;5696563;2407122;1228,3055
1226;5696104;2407083;1227,0613;Laku krāsu rūpnīca
1227;5696139;2407077;1226,0638,3055
0612;5695215;2407114;0640,3038,1092;Lauksaimniecības maš. rūpnīca
0640;5695280;2407046;0612,0639
1129;5697136;2407357;1130,1131;Māju celtniecības kombināts
1130;5697112;2407318;1129,1128,1228
0641;5694835;2407568;1040,1094;Mārtiņa iela
1135;5698861;2408296;1141,1134;Pagrieziens uz Voleriem
1133;5697794;2407994;1134,1132;Podraga iela
1134;5697854;2408098;1133,1135
0613;5695615;2407043;0639,1226;Ūdens iela
0639;5695530;2406988;0613,0640,3060
1144;5700618;2407621;1145,1136;Dārzniecība;;Daugavgrīvas šoseja
1145;5700686;2407576;1144,1147
1146;5701256;2407041;1147,1148;Gāze
1147;5701241;2407037;1146,1145
1148;5701816;2405724;1149,1146;Kokapstrādes kombināts
1149;5701829;2405600;1148,1150
1141;5698918;2408224;8072,1135;Pagrieziens uz Voleriem
1142;5699794;2407716;1143,1138;Voleri
1143;5699871;2407722;1142
8005;5697985;2413667;8006,0483;Ātrās palīdzības stacija;;Duntes iela
8006;5697848;2413610;8005,0153
0106;5699229;2412565;0486,2016;Duntes iela
0318;5698738;2413292;0317,7992;Ozolaine
0317;5698658;2413378;0318,0482
0482;5698380;2413601;0483,0317;Traumatoloģijas un ortopēdijas slimnīca
0483;5698297;2413628;0482,8005
0486;5699243;2412552;0106,3086;Tvaika iela/Tilta iela
2016;5699061;2412933;7992,0106;Vītolu iela
7992;5698999;2412969;2016,0318,0139;Vītolu iela/RAF centrs
0445;5696252;2417107;0447,2126;Gustava Zemgala gatve;;Dzelzavas iela
0161;5695542;2419756;0156,0280;Ilūkstes iela
0156;5695562;2419872;0161,0107,1701
0280;5695629;2419143;0279,0161,5088;Mēbeļu nams
0279;5695665;2419123;0280,2065
0306;5695983;2417633;2059,2126;Nīcgales iela
0309;5695908;2418033;0450,2062
0371;5695433;2420559;0725,0372,5343;Purvciems
0372;5695477;2420477;0371,0107
0725;5695454;2420600;0371,7998
0450;5695855;2418095;0309,2058;Stirnu iela
1165;5702904;2399740;1177,1176;Attīrīšanas iekārtas;;Dzintara iela
1177;5702996;2399885;1165,1164
1163;5703508;2401243;1179,1178;Dārziņi
1179;5703501;2401270;1163,1162
1168;5701429;2397741;1174,1169;Dzelmes iela
1174;5701461;2397841;1168,1175
1164;5703398;2400360;1178,1177;Garāžas
1178;5703423;2400573;1164,1163
1166;5702135;2399265;1176,1167;Roņu iela
1176;5702162;2399313;1166,1165
1169;5701298;2397483;1173,1168,1172;Vētras iela
1173;5701293;2397474;1169,1171
1167;5701793;2398578;1175,1166;Zēģeļu iela
1175;5701765;2398543;1167,1174
1118;5695206;2405395;3048,1235;Botāniskais dārzs;;Dzirciema iela
1236;5694971;2405435;1090,1117
1126;5696682;2405776;1221,1231;Buļļu iela
1235;5695279;2405347;1118,1234;Dārza iela
1214;5697797;2405462;1215;Dzirciema iela
1233;5695957;2405222;1124,0635,1119;Mazā Stacijas iela
1215;5697681;2405496;1603,1214;Nordeka
1603;5697682;2405524;1215,1216
1213;5697575;2405549;1216,1212;Pārbrauktuve
1216;5697576;2405527;1213,1603
1119;5695698;2405253;1234,1233,3026;Sēlpils iela/Donoru centrs
1234;5695610;2405253;1119,1235
1124;5696146;2405398;0636,1233,3058;Slokas iela
1212;5697409;2405585;1217,1213,1230;U.B.A.K.
1217;5697400;2405565;1212,1211
0616;5696427;2405574;0636,1221,0637;Vaidelotes iela
0636;5696332;2405533;0616,1124
2072;5694888;2412544;1600,2075,0182;Dzirnavu iela;;E.Birznieka-Upīša
1600;5694854;2412378;0074,0709,2072;E. Birznieka - Upīša iela
2071;5694987;2413200;2076,2075;Lāčplēša iela
2075;5694912;2412779;2072,2071,7749g;Visvalža iela
9089;5694637;2423764;9091,0710;Dzilnas iela;;Ē.Valtera iela
9090;5694544;2423701;9091,5035a;Ē. Valtera iela
9091;5694553;2423722;9090,9089,9096;Izkāpšana
9095;5694410;2424141;9096,5101a;Kaivas iela
9096;5694425;2424142;9095,9091
0544;5700796;2432831;0545,0191;Krievupes iela;;Elenburgas iela
0545;5700828;2432832;0544,0234
0235;5701021;2432623;0234;Langstiņi
0234;5701031;2432669;0235,0545
0237;5698711;2433767;0236,0495,0437;Lapsukalni
0236;5698716;2433802;0237,0519
0192;5700381;2433150;0191,0518;Mediķu iela
0191;5700396;2433180;0192,0544
0495;5698202;2433750;0494,0237;Upesciems
0494;5698199;2433806;0495,1521
0518;5699438;2433494;0519,0192;Ziemeļnieki
0519;5699439;2433532;0518,0236
7984;5695833;2410678;0121,0116;Elizabetes iela;;Elizabetes iela
0709;5694899;2412273;1600,0711,2133
5464;5695675;2411304;0120,0233;K. Valdemāra iela
0108;5703347;2411854;0124,0349,0475;Dzelzceļa pārbrauktuve;;Emmas iela
0124;5703366;2411843;0108,0125;Emmas iela
0349;5703117;2411380;0348,0108;Piektā līnija
0348;5703096;2411365;0349,0282
0361;5699331;2418093;8074,0210;Aizsardzības akadēmija;;Ezermalas iela
8074;5699323;2418089;0361,0130
0117;5700548;2416646;0290,0485;E. Dārziņa iela
0130;5699251;2418562;0131,8074;Ezermalas iela
0131;5699239;2418579;0130,4001;Krustabaznīcas iela
4001;5699216;2418743;0131,0472
0211;5699478;2417292;0210,0209;Ķīšezera iela
0210;5699458;2417318;0211,0361
0290;5700646;2416541;0132,0117,0459;Meža prospekts
0422;5700148;2417045;0421,0457;Saules dārzs
0421;5700169;2417006;0422,0484,3239
0485;5700394;2416839;0484,0117;Sporta bāze
0484;5700353;2416874;0485,0421,3213
0458;5699821;2417095;0457,0209;Sudrabu Edžus iela
0457;5699888;2417041;0458,0422,3214
8014;5704261;2403565;1183,0017;Klubs;;Flotes iela
1183;5704222;2403556;8014,1182,8040
0242;5696179;2419898;0243,0110,1702;Lielvārdes iela;;G.Astras iela
0243;5696170;2419828;0242,2066
1150;5702814;2404693;1151,1149;Silikātu iela;;Gaigalas iela
1151;5702842;2404648;1150,1184,1152
0527;5696819;2423910;0717,0439;7.slimnīca;;Gaiļezera iela
0717;5696790;2423972;0527,0169,0528;Gaiļezers
2118;5694476;2412039;0078b,0078a;Centrāltirgus;;Gaiziņa iela
2015;0;0;;Gaiziņa iela
0134;5698585;2412093;7986,0136;Fabrika "Kokvilna";;Ganību dambis
0136;5698508;2412010;0134,3089
0252;5697465;2411184;3068,3092;Lugažu iela
0253;5697382;2411099;3092,0347,1037
0346;5696869;2410700;0347,3093,1038;Pētersalas iela
0347;5696878;2410688;0346,0253
2013;5696764;2410650;2014,5472
0374;5698024;2411640;3070,3071;Rankas iela
0375;5697869;2411501;3090,3091
0387;5699087;2412206;3087,0388;Rūpnīca "RER"
0388;5699160;2412233;0387,3086
7985;5698739;2412149;3072,3088;Trolejbusu parks
7986;5698646;2412096;0134,3072
0015;5698154;2414870;3219,3232;Aizsaules iela;;Gaujas iela
9105;5698731;2416708;9106,0316;Čiekurkalna 3. šķērslīnija
0428;5698464;2415760;3244,3235,0033;Skola
0473;5698237;2415111;3219;Tēraudlietuves iela
8050;5703322;2404859;8012,1152;Tirdzniecības centrs;;Gobas iela
8012;5703341;2404858;8050,1153,0029
0079;5694566;2411932;0078,1251a;Centrālā stacija;;Gogoļa iela
0722;5694536;2411985;0078a,0078
0078;5694538;2411936;0722,0079;Centrāltirgus
0078a;5694516;2411977;0722,2118
0078b;5694450;2412112;2118,2135,0708
0113;5694193;2412792;0149;Dzirnavu iela
0149;5694214;2412940;0113,1102,7749f;Gogoļa iela
1444;5694413;2401247;1445,1432;Zantes iela;;Gramzdas iela
1445;5694407;2401164;1444,8069,1443
1472;5691464;2428569;1474,1473;Acone;;Granīta iela
1474;5691482;2428417;1472,1471
1469;5691374;2425791;1477,1476;Ciemats
1477;5691384;2425660;1469,1468
1470;5691408;2426698;1476,1475;Dārziņi
1476;5691418;2426562;1470,1469,1614
1464;5690867;2421213;1482,1706;Granīta iela
1466;5691272;2422952;1480,1479;Granīta iela 13
1480;5691280;2422883;1466,1552
1552;5691247;2422315;1553,1480;Granīta iela 5
1553;5691255;2422209;1552,1465,0368
1482;5690879;2421210;1464,1481,1488;Krustpils iela
1465;5691174;2421706;1481,1553,1601;Malēju iela
1481;5691169;2421684;1465,1482
1468;5691327;2424495;1478,1477;Pilsētas robeža
1478;5691335;2424413;1468,1467
1467;5691299;2423734;1479,1478;Rožkalni
1479;5691305;2423577;1467,1466
1473;5691503;2429088;1472,5030;TEC- 2
1471;5691439;2427648;1475,1474;TEC- 2 pārvalde
1475;5691451;2427512;1471,1470
2104;5691138;2410260;2105,2109;Graudu iela;;Graudu iela
2106;5690874;2409735;2109,1345;Līvciema iela
2109;5690910;2409835;2106,2104
0085;5697881;2416340;0086,0315,3137;Čiekurkalna stacija;;Gustava Zemgala gatve
0086;5697847;2416317;0085,3136
0447;5696424;2416876;8001,0445;Stārķu iela
2003;5695277;2413079;0147,2063,2007;A.Čaka iela;;Ģertrūdes iela
2008;5695336;2413000;0147,2063,3129
2004;5695071;2413452;2007,2070,2006;Avotu iela
2007;5695118;2413394;2004,2076,2003
2002;5695529;2412630;2010,2011,1491;K. Barona iela
2010;5695480;2412747;3123,2002,1495
2005;5694758;2414026;0146,2006,5467;Valmieras iela
5133;5691948;2407406;1401,5134,1403,5220;Ģimnastikas iela;;Ģimnastikas iela
7988;5696832;2424148;0169,8030;7. slimnīca/Slimnīca "Gaiļezers";;Hipokrāta iela
0528;5696693;2424019;0717,0542;7.slimnīca/Slimnīca "Gaiļezers"
0542;5696360;2423863;0543,0528,1157;89.skola / Vidusskola
0543;5696340;2423881;0542,0151
0054;5695853;2423808;0379a,0151,0378;Biķernieku iela
0151;5695977;2423849;0054,0543;Hipokrāta iela
8030;5697068;2424295;7988,7983;Mežciems
0169;5696821;2424112;7988,0717;Slimnīca "Gaiļezers"
0109;5696645;2419893;0110;Dzelzceļa slimnīca;;Ieriķu iela
8001;5696551;2416734;0446,0447;Maxsima Ieriķu ielā
0446;5696547;2416648;8001,8002;Stārķu iela/Rūpnīca "VEF"
8002;5696564;2416377;0446,0441,3117;T/C Domina Shopping
0441;5696476;2415637;0443,8002;Zemitāna stacija
0443;5696495;2415600;0441,5293
1170;5701663;2396984;1172;Pludmale;;Ilmeņa iela
1172;5701601;2397146;1170,1169
1171;5700085;2394304;1173,1708;Vakarbuļļi
0107;5695380;2419936;0159,0156,0372;Dzelzavas iela;;Ilūkstes iela
0476;5694527;2419592;0479,5457,0157;Sesku iela
0479;5694719;2419596;5141,5140,0476
0159;5695362;2419902;0107,5141;Varavīksnes gatve
0157;5694171;2419545;0196,0476;Zemes iela
5030;5692968;2431507;5031,5062,1473;Avas;;Institūta iela
5031;5692987;2431544;5030,5032
5062;5693376;2430725;5063,5030;Brasliņas
5063;5693416;2430738;5062,4751
5143;5694300;2428366;5142,5237;Institūts
5142;5694290;2428454;5143,5087,5406
5208;5692255;2433173;5206,5379,5113;Mazkājas
5206;5692241;2433154;5208
5237;5694416;2427808;5238,5407,5143;Ogres pagrieziens
5238;5694417;2427744;5237,5408,5320
5378;5692741;2432186;5379,5032;Skola
5379;5692744;2432219;5378,5208
4751;5693976;2429334;5406,5063;Ulbroka
5406;5694044;2429227;4751,5142
2086;5695096;2411542;0168,0167;Latvijas Universitāte;;Inženieru iela
2067;5695621;2415225;2127,5144,2043;J.Asara iela;;J.Asara iela
2068;5695377;2414681;2078,0272;Lienes iela
2078;5695392;2414745;0244,2068,2043
0536;5686186;2427592;0535,0096;29.līnija;;Jāņogu iela
0535;5686194;2427617;0536,0410
0539;5686144;2428462;0537;38.līnija
0096;5686237;2426875;0095,0536;Dārziņi-1
0355;5705039;2417216;0356,0135;1. šķērslīnija;;Jaunciema gatve
0356;5705052;2417228;0355,0521
0083;5704190;2417339;0084,0501;4. šķērslīnija
0084;5704240;2417345;0083,0133
0501;5703900;2417556;0508,0083;6. šķērslīnija
0508;5703868;2417555;0501,0186
7979;5703666;2418473;0044,0185;Belte
0072;5704547;2411900;0073,0118;Ceļu meistars
0073;5704552;2411958;0072,0319
0118;5704315;2411500;0119,0072;Eglīšu rotājumu rūpnīca
0119;5704319;2411467;0118,0517,0337
0123;5703521;2411850;0125;Emmas iela
0125;5703515;2411831;0123,0124,0516
0133;5704578;2417341;0135,0084;Fabrika "Jaunciems"
0135;5704605;2417356;0133,0355
0102;5703186;2418765;0103,0459;Jaunciema 10. šķērslīnija
0103;5703221;2418765;0102,0044
0044;5703667;2418499;7979,0529,0103;Jaunciems (Belte)
0460;5701860;2420787;8004,0459;Jaunciems (Suži)
0459;5701957;2420619;0460,0102,0290
0184;5705247;2413868;0183,0293;Kalēji
0183;5705261;2413746;0184,0247
0185;5703667;2418424;7979,0186;Kapi
0186;5703697;2418306;0185,0508
0212;5701292;2423234;0213;Klipiņas
0213;5701280;2423225;0212,0321,0296
0226;5700454;2425204;0225,0068;Kūdras bāze
0225;5700454;2425159;0226,0295
0247;5705110;2412756;0246,0183;Līgeri
0246;5705097;2412714;0247,0320
0293;5705279;2414393;0294,0184;Mežniecība
0294;5705292;2414479;0293,0329
0295;5700911;2424379;0296,0225,1612;Milnas
0296;5700918;2424343;0295,0213
0319;5704840;2412378;0320,0073;Ozoli
0320;5704870;2412390;0319,0246
0322;5701184;2422066;0321,8004;Ozolkalni
0321;5701180;2422125;0322,0213
0068;5700365;2425915;0069,1669,0226;Pagrieziens uz Bukultiem
0069;5700356;2425926;0068,0056
0328;5705291;2415613;0329,0522;Pagrieziens uz Carnikavu
0329;5705301;2415400;0328,0294,5526
8004;5701879;2420830;0460,0322;Suži
0475;5703187;2413409;0474,0108;Tilts
0474;5703104;2413559;0475,0313
0517;5703931;2411292;0516,0119;Ziemeļblāzma
0516;5703889;2411302;0517,0125,0254
0522;5705254;2416831;0521,0328;Zundagi
0521;5705252;2416881;0522,0356
2123;5692629;2409253;1268,2050;Bauskas iela;;Jelgavas iela
1266;5693105;2409879;2055,1267;Bieķensalas iela
1267;5693019;2409768;1266,1265
2050;5692377;2409042;2051,2123,1264;Jelgavas iela
1265;5692703;2409303;1268,1267;Satiksmes iela
1268;5692678;2409273;1265,2123,1363
2051;5692378;2409019;2050,3193;Vienības gatve
0052;5695877;2425271;0053,0378;Bērnu slimnīca;;Juglas iela
0053;5695874;2425287;0052,1529
0170;5697766;2425529;0179;D/P "Jugla - 3"
0165;5698283;2425086;0166,0338;Internātskola
0166;5698251;2425110;0165,0302
0177;5697571;2425447;0176,0430,0526;Jugla
0176;5697654;2425459;0177,0179
0339;5698563;2424801;0338,0363;Pāles iela
0338;5698519;2424805;0339,0165
0363;5698802;2424441;0367,0339;Poliklīnika
0367;5698904;2424328;0181,0363
0649;5694303;2402764;0650,1435,0646;Irlavas iela;;Jūrkalnes iela
0650;5694292;2402751;0649,1426;Mikus iela
0645;5694553;2403640;0646,0648;Zasulauka depo
0646;5694554;2403620;0645,0649,1089
1452;5695370;2397207;1551,1451;Beberbeķu iela;;Jūrmalas gatve
1551;5695433;2397029;1452,8085
1042;5695139;2405279;3037,3024;Botāniskais dārzs
1090;5695119;2405524;3048,1236,3101
1550;5695994;2395207;1549,1662;Ceļš uz Vārnukrogu
1078;5695346;2400502;1083,1082;Dubultu iela
1083;5695341;2400555;1078,1077,1437
1450;5695361;2398510;1454,1449;DUS
1454;5695359;2398304;1450,1453
1449;5695353;2399020;1455,1450,5132;Ērkšķu iela
1455;5695345;2399122;1449,1079
1460;5695227;2402300;1461,1459;Imantas 7.līnija
1461;5695230;2402456;1460,1462,1435,1070
1462;5695219;2402929;1463,1461;Kooperatīva iela
1463;5695208;2403037;1462,3036
1043;5695220;2403666;1089,3049,3028;Kurzemes prospekts
1089;5695196;2403651;1043,0646
1451;5695377;2397856;1453,1452;Ķiburgas iela
1453;5695366;2397976;1451,1454
1458;5695311;2401622;1459,1456,1086;Pedagoģijas fakultāte
1459;5695291;2401676;1458,1460,1434
1457;5695359;2400984;1456,1077;Poliklīnika
1456;5695348;2401090;1457,1458
1079;5695325;2399807;1082,1080,1455;Zolitūdes iela
1082;5695319;2399867;1079,1078,1440
5272;5695477;2391434;5273,9084;Darbnīcas;;Jūrmalas iela
0020;5696644;2412993;2039,0340,0126,1037;Alojas iela;;K.Valdemāra iela
0027;5696324;2412545;2032,0340;Aristida Briāna iela
0067;5696118;2412206;0066,5463;Bruņinieku iela
0066;5696168;2412264;0067,2032
0120;5695614;2411258;5464,0259,0194a;Elizabetes iela
0122;5695918;2411847;0233,1800;Emiļa Melngaiļa iela
0128;5697005;2413281;0126,0127;Ēveles iela
0126;5696893;2413168;0128,0020
0153;5697396;2413542;0152,3221,8006;Ierēdņu iela
0152;5697358;2413521;0153,9102
0611;5694999;2408751;0642,2131;Ķīpsala
0233;5695816;2411684;0122,0724,5464;Lāčplēša iela
0259;5695566;2411141;0120,0373,0281;Mākslas muzejs
0610;5695380;2410643;0643,3098;Nacionālais teātris
0340;5696474;2412758;0027,0020,3224,1038;Palīdzības iela
0642;5694922;2408678;0611,1244;Preses nams
5384;5694638;2407512;1094,1039,3040;Slokas iela
1094;5694651;2407591;5384,0641
0643;5695395;2410707;0610,0373;Zigfrīda Annas Meierovica bulvāris
0710;5695067;2424359;9089,0378;Dreiliņi;;Kaivas iela
5519;5712838;2428025;5521;Carnikavas tirgus laukums;;Kalmju iela
0275;5694229;2414523;0276,0099;Mazā Kalna iela;;Kalna iela
5034;5694501;2407210;2033,2037;Baložu iela;;Kalnciema iela
1413;5693566;2403876;1424,1416,5328;Kalnciema iela
1423;5693346;2403171;1537,8021,1424
8020;5692898;2401172;5450,1544,5106;Kalniņi
1534;5694363;2406876;1548,2034;Melnsila iela
1548;5694357;2406909;1534,2037
5288;5694179;2406191;5289,3001,2046;Pasts
5289;5694181;2406270;5288,1238
1422;5693121;2402683;1419;Pleskodāles iela
1039;5694576;2407542;1107,5384;Slokas iela
1424;5693515;2403717;1413,1417,5431,1423;Ventspils iela
1421;5692940;2402225;1420,1419,5189;Zolitūdes iela
0121;5695808;2410608;7984,2120,3063;Elizabetes iela;;Kalpaka bulvāris
0281;5695703;2410754;2120,0259;Medicīnas muzejs
2120;5695716;2410738;0281,0121
1556;5700980;2426897;1668,1612;Bukulti;;Kanāla iela
0012;5691914;2405095;5065,1547;Brūkleņu iela;;Kantora iela
5065;5691931;2405209;0012,0011
5189;5691757;2402546;5188,5390,1421;Lamberti
5188;5691757;2402646;5189,5376
5376;5691831;2403688;5375,5188;Mārupes vidusskola
5375;5691823;2403734;5376,8082
5221;5692121;2406500;5220,1403,1378;Mežotnes iela
5220;5692091;2406485;5221,5133
4996;5690447;2399473;8064,5448;Milži
8064;5690478;2399534;4996,5236
5236;5691014;2400250;5235,8064;Noras
5235;5691100;2400391;5236,5389
5389;5691487;2400903;5390,5235;Stīpnieki
5409;5691871;2404279;5410;Upesgrīvas iela
5410;5691861;2404244;5409,8082
5447;5689784;2398560;5448,5075;Zirnīši
5448;5689824;2398634;5447,4996
2037;5694325;2407185;1548,5034,7974;Kapseļu iela;;Kapseļu iela
8040;5703730;2403976;1155,1183;Poliklīnika;;Kapteiņu iela
1155;5703678;2404031;8040,8013
1153;5703564;2404457;8013,8012;Skola
8013;5703564;2404407;1153,1155
6454;5694971;2396110;8085,1549;Beberbeķu iela;;Kārļa Ulmaņa gatve
8085;5694938;2396335;6454,1551
1276;5692212;2410357;1263,1262,3204;Ceļu pārvalde
5089;5693555;2400395;5106,1443;Dārzniecība
5106;5693354;2400566;5089,8020;DUS "Statoil"
5132;5694874;2398853;5131,1449;Gaviezes iela
5131;5694773;2398992;5132,5218
5218;5694424;2399579;5219,1442,5131;Mežmalas iela
5219;5694374;2399563;5218
1263;5692323;2410408;1276,9104;Mūkusalas rotācijas aplis
1359;5691869;2409044;1361,5331,1355;Telts iela
1361;5691910;2409130;1359,1335
5450;5692955;2401558;5449,8020;Zolitūdes iela
5449;5692876;2401774;5450,1420
0193;5696960;2417803;0380,1509;Kastrānes iela;;Kastrānes iela
0380;5696870;2417772;0193,0490;Raunas iela
0490;5696630;2417660;0491,0380;Ūnijas iela
0705;5693129;2420093;0359,0360;Katlakalna iela;;Katlakalna iela
1504;5693063;2419845;1602,0360;Pļavnieku d/p / Katlakalna iela
1602;5693019;2419891;1504
1666;5698413;2400077;1667,0626;Liepezers;;Kleistu ceļš
1667;5698420;2400050;1666,1709
1664;5697581;2396894;1665,1662;Mežāres
1665;5697618;2396906;1664,1708
1708;5697851;2397477;1709,1665,1171;Pumpas
1709;5697857;2397541;1708,1667
0621;5697163;2403140;0631,5451;Autobusu parks;;Kleistu iela
0631;5697237;2403159;0621,0630
0620;5696655;2402691;0632,1057,0633;Bāze
0632;5696704;2402706;0620,5451
1196;5699779;2402941;1197,1194;Dārziņi
1197;5699718;2402946;1196,0625
0623;5697877;2403559;0629,1199;DUS
0629;5697814;2403552;0623,1053
0622;5697517;2403438;0630,1053,1203;Gaiļi
0630;5697496;2403388;0622,0631
1192;5701717;2401761;1193,1195;Jaunie kapi
1193;5701728;2401770;1192,1191
1194;5700242;2402759;1195,1196;Meža
1195;5700330;2402747;1194,1192
1198;5698423;2403289;0624;Pagrieziens uz Kleistiem
1199;5698302;2403324;0624,0623
5451;5697025;2403080;0621,0632;RP SIA "Rīgas satiksme"
9082;5696211;2402305;3052,0633,1057;Veikals "Nelda"
0385;5697455;2414459;3220,8000;Klijānu iela;;Klusā iela
8026;5692672;2415938;0162,3176,5397;Atpūtas centrs "Lido";;Krasta iela
0162;5692397;2416339;3177,8026,5136
5397;5693099;2415160;8028,3243,8026;T/C "Krasts"
5002;5693512;2413840;3160,8028;T/C "Mols"
8028;5693266;2414558;5397,5002;Tirdzniecības centrs
0040;5703551;2409460;0218,0041;Baltāsbaznīcas iela;;Kreimeņu iela
2034;5694428;2406640;1238,1534;Melnsila iela;;Kristapa iela
1486;5692219;2419114;1485,1507,0172;0;;Krustpils iela
1488;5691178;2420585;1489,1482;Depo
1489;5691240;2420492;1488,1483,0101
1484;5691807;2419680;1505,1487,0502,0497;Dzelzceļa pārbrauktuve
1506;5692693;2418688;1507,1605;Katlakalna iela
1507;5692532;2418799;1506,1486,0200
1604;5692954;2418269;1605,0431;Krustpils  iela
1505;5691949;2419473;1484,1485,0403;Krustpils iela 53
1485;5692106;2419289;1486,1505
1605;5692977;2418329;1604,0046,1506;Lubānas iela
1483;5691480;2420103;1487,1489;Strādnieku ciemats 1
1487;5691522;2420029;1483,1484
1407;5693066;2405727;1408,1377;Bāze;;Krūzes iela
1408;5693114;2405681;1407,1409,3002
0025;5699901;2411625;0024,0023,0429;Aptiekas iela;;Kundziņsalas 6.šķērslīnija
0429;5700100;2410724;0025,1136;Skola
2006;5694862;2413752;2005,2004,7749e;Ģertrūdes iela;;Kurbada iela
1024;5695988;2399736;1608,1062c;Airītes iela;;Kurzemes prospekts
1608;5695958;2399769;0714,1024,1074
0619;5696335;2403026;0633,1046;ATC "Latina"
0633;5696329;2402962;0619,0620,9082
1080;5695571;2399779;1081,1079;Ceriņu iela
1081;5695683;2399732;1080,0714
1059;5696811;2400957;1065,3031;Dammes iela
1065;5696853;2401109;1059,1058
0714;5695942;2399767;1608,1081;Imanta
1058;5696902;2401749;1066,1065;Imanta 3
1066;5696848;2401786;1058,1067
1060;5696485;2400225;1064,1063;Imanta 4
1064;5696549;2400441;1060,0715
1062;5696001;2399587;1062e,1062c,1035;Imantas D/P
1062c;5696016;2399627;1062d,1062,1024
1062d;5696027;2399606;1062c,1062e
1062e;5696025;2399570;1062d,1062
1057;5696653;2402310;1067,0620,9082;Kleistu iela
1067;5696660;2402216;1057,1066
8007;5696036;2403652;1046,0634;Maxsima
1044;5695542;2403525;3035,1088,3025;Radiorūpnīca
1045;5695787;2403531;3050,1069
1088;5695365;2403465;3049,1044
1046;5696087;2403526;8007,1069,0619;Tirdzniecības centrs
1061;5696193;2399871;1063,1074
1063;5696292;2399983;1061,1060
1069;5695994;2403477;1046,1045
2044;5696856;2419274;1511,1510;Ķeguma iela;;Ķeguma iela
0209;5699491;2417160;0211,0458,3215;Ķīšezera iela;;Ķīšezera iela
0406;5698835;2416396;0405,3217;Rusova iela
0405;5698846;2416387;0406,3216
1102;5694064;2413003;0149,3162,3171;Maskavas iela;;Lāčplēša iela
0036;5693905;2415534;0035,0511;Lomonosova iela;;Lauvas iela
0498;5694240;2415511;0511,5468;Vagonu parks
0099;5694164;2413962;0366,0275,0146;Daugavpils iela;;Lazdonas iela
1128;5697168;2406502;1230,1130;Spilves iela;;Lidoņu iela
1230;5697159;2406340;1128,1127,1212
1127;5696946;2405923;1231,1230,1211;Tirdzniecības centrs
1231;5696876;2405850;1127,1126
1188;5702556;2402564;1189,1186,1162;Eksper.mehān.rūpnīca;;Lielā iela
1189;5702531;2402557;1188,1190
1190;5702208;2401854;1191,1189;Institūts
1191;5702195;2401845;1190,1193
5328;5693543;2404403;1412,1546,1413;RMR;;Lielirbes iela
1546;5693614;2404653;5328,1415
1545a;5693078;2403513;8021;Tirdzniecības centrs "SPICE"
8021;5693104;2403487;1545a,5431,1423
5431;5693299;2403883;5430,1424,8021;Ventas iela
5430;5693304;2403970;5431,1412
1701;5695897;2420325;1702,0156;80.vidusskola;;Lielvārdes iela
1702;5695922;2420319;1701,0242
0110;5696522;2419910;0109,2080,0242,0187;Dzelzceļa slimnīca
2100;5697620;2418825;2094,2092,2093;Lielvārdes iela
2092;5697794;2418613;0207,2100,2024;Zemitāna laukums
0010;5692258;2405266;0011,8023;Brūkleņu iela;;Liepājas iela
0011;5692221;2405222;0010,5065,1380
1374;5693181;2407127;1375,5350;Mārupes iela
1375;5693188;2407104;1374,2036,1370
8023;5692457;2405616;8063,0010;Mežotnes iela
8063;5692478;2405640;8023,1378
1376;5692958;2406512;1377,2036;Poliklīnika
1377;5692956;2406486;1376,1379,1407
1378;5692630;2406106;1379,8063,5221;Raudas iela
1379;5692654;2406160;1378,1377
0720;5697613;2419761;2093;Slimnīca "Linezers";;Linezera iela
0100;5690968;2420007;0101,2089,0248;Daugmales stacija;;Lokomotīves iela
0101;5690983;2420015;0100,1489
0155;5690457;2421017;0154,2081,0426;Ikšķiles iela
0154;5690469;2421027;0155,1706
0248;5690804;2420369;0249,0100;Lokomotīves iela
0249;5690790;2420358;0248,2090,2081
0504;5691502;2419024;0502,2084;Mūzikas skola
0502;5691519;2419038;0504,0402,1484
0402;5691681;2418787;0403,2085,0502;Rušonu iela
0403;5691738;2418748;0402,0171,1505
0425;5690263;2421402;0426,0300;Šķirotavas stacija
0426;5690319;2421319;0425,0155
0035;5693811;2415671;0036,3174,7981;Lauvas iela;;Lomonosova iela
0381;5693459;2416149;0382,3157,0250;Rēznas iela
0382;5693544;2416042;0381,3175
0042;5693159;2421180;0043,0093;Bāze;;Lubānas iela
0043;5693176;2421171;0042,0359,7977
5101a;5694366;2424470;9098,9095;Dreiliņu pasts
9097;5694333;2424586;9098,5103
9098;5694367;2424501;5101a,9097
5102;5694335;2425082;5103,5200;Dreiliņu veikals
5103;5694355;2425040;5102,9097
0158;5693190;2419659;0160,0360;Ilūkstes iela
0160;5693180;2419451;0158,0046
5199;5694333;2425756;5200,5321;Liepziedi
5200;5694344;2425646;5199,5102
0251;5693183;2418141;1499,0091,0719;Lubānas iela
0250;5693292;2416696;0412,0381,3156
1499;5693148;2418216;0251,0046
0719;5693200;2417376;0412,0251,0431
0288;5693893;2423032;0289,0358;Meža
0289;5693926;2423175;0288,5035a
0357;5693689;2422431;0358,7978;Pļavnieki
0358;5693699;2422482;0357,0288
0359;5693173;2420181;0705,0701,0043;Pļavnieki-2
0360;5693200;2419952;0705,0492,1504,0158
7978;5693494;2422073;7976,0357;Pļavnieku kapi
5320;5694289;2426990;5321,5238,1614;Radiocentrs
5321;5694300;2426928;5320,5199
0046;5693112;2418426;1499,1605,0160;Slāvu rotācijas aplis
0366;5694063;2413656;3161,3171,0099;Katoļu iela;;Ludzas iela
0276;5694079;2414825;0275,0511,3159;Mazā Kalna iela
0511;5694092;2415344;0498,0036,0276;Viļānu iela
0070;5697479;2423299;0071;Celmu iela;;Malienas iela
0071;5697474;2423292;0070,7982,0343
0150;5697371;2424086;0260,7983,0427;Hipokrāta iela
0260;5697388;2424003;0150;Malienas iela
0343;5697506;2422691;0341,0071;Pansionāts
0341;5697504;2422548;0343,0434
0430;5697556;2425295;0427,0177;Skola
0427;5697548;2425188;0430,0150
5126;5704222;2441124;8053;Garkalne;;Mālpils šoseja
2115;5690591;2411177;2114,2113;A/S "Dzintars";;Mālu iela
2114;5690557;2411153;2115,1341;Mālu iela
2113;5690737;2410916;2116,2115;Staburaga iela
2116;5690802;2410876;2113,2105,3207
0264;5707112;2409535;0265,7994;Mangaļu prospekts;;Mangaļu prospekts
0265;5707079;2409603;0264,0331
1028;5694768;2411880;7980,0703;Stacijas laukums;;Marijas iela
1028a;5694796;2411954;0076,0703,1033a
0703;5694752;2411934;1028,1028a
5350;5693020;2407444;5351,1374;Saules aleja;;Mārupes iela
5351;5692950;2407506;5350,1364
1370;5693296;2407164;1371,1375,1372;Tukuma iela
1371;5693328;2407127;2035,1370,3004
1391;5690016;2404710;5362,5414;Bērnudārzs "Lienīte";;Mārupītes gatve
1393;5689821;2404636;5362,1392
1392;5689482;2404606;1393,1557;Mārupe
0018;5688853;2423021;0019,0223;Apskates stacija;;Maskavas iela
0019;5688848;2423105;0018,0002
0203;5692243;2417071;3154,3177;Keramika
0204;5692134;2417059;3178,0198
0223;5689132;2422350;0224,0018;Krustpils iela
0224;5689186;2422302;0223,0515
0198;5691887;2417330;3153,0204,0199;Ķengarags
0197;5691747;2417350;3179,3180
0202;5689978;2420413;0201,0376,2091;Ķengarags-3v
0201;5689885;2420567;0202,0299
0261;5690766;2418504;3183,3184;Malnavas iela
0262;5690872;2418359;3149,0404
0001;5688654;2423493;0002,0398;Maskavas iela 450
0002;5688679;2423498;0001,0019
0326;5687075;2427251;0325,0503,0481;Pagrieziens uz Dārziņiem
0325;5687091;2427274;0326
0370;5691415;2417554;0369,0477;Prūšu iela
0369;5691458;2417593;3152,0370
0376;5690179;2419862;0377,0202;Rasas iela
0377;5690282;2419679;0376,0229,2090
0397;5688202;2424637;0396;Rumbula
0396;5688172;2424633;0397,0398,0480
0398;5688187;2424514;0396,0001
0401;5691068;2417948;3182,0478;Rušonu iela
0404;5690981;2417993;3150,0262
0230;5690507;2419131;0229,3147,2089;T/C "DOLE"
0229;5690470;2419115;0230,0377
0478;5691195;2417742;3181,0401;Tirdzniecības centrs
0477;5691281;2417721;3151,0370,2087
0481;5687559;2426095;0480,0326;Tīrumi
0480;5687589;2426088;0481,0396
0513;5689627;2421181;0515,1305;Višķu iela
0515;5689632;2421230;0513,0299,0224
5462;5695587;2413608;5465,0270;A.Čaka iela;;Matīsa iela
5466;5695256;2414274;2069,0272;Avotu iela
5461;5695337;2414141;2069;Krāsotāju iela
5459;5694754;2415388;5468,5467;Matīsa iela
5465;5695575;2413592;5462,1494
5468;5694731;2415406;5459,5453,0498;Pērnavas iela
5467;5695009;2414809;5460,5459,2005;Valmieras iela
0138;5697092;2427058;0525,1528,0241;Galapunkts;;Mazā Juglas iela
0525;5697212;2426308;0526,0138;Zvēraudzētava
0526;5697236;2426229;0525,0177
5429;5688043;2394585;5428,5512;Jaunmārupes sākumskola;;Mazcenu aleja
4999;5688203;2393469;5511,5513;Mūzikas un mākslas skola
5512;5688231;2394217;5511,5429;Pļavu iela
5511;5688223;2394200;5512,4999
5513;5687946;2392780;5514,5515,4999;Siltumnīcu komplekss
0093;5693024;2421163;0092,0042;Dārzeņu bāze;;Meirānu iela
0092;5692960;2421259;0093,0496
0497;5692281;2421273;0496,1484;Rencēnu iela
0496;5692314;2421292;0497,0368,0092
1116;5694673;2406241;2045,1237,1091;Āgenskalna iela;;Melnsila iela
1115;5694058;2407019;7974,1239;Ļermontova iela
7974;5694081;2406969;1115,2037
1238;5694465;2406530;2034,2045,5289;Melnsila iela
1549;5695813;2395342;1550,6454,5279;Babītes stacija;;Mēness iela
0284;5696871;2413656;3230,0080;Mēness iela
1662;5696424;2396231;1663,1550,1664;Spilve
1663;5696415;2396257;1662
0059;5695202;2411590;0700,0167;Brīvības bulvāris;;Merķeļa iela
0167;5695122;2411682;2086,0059,3125;Inženieru iela
1033b;5694954;2411881;1033,3125;Merķeļa iela
1033a;5694869;2411974;2119,1028a
2119;5694900;2411939;1033a,1033,0075
1033;5694945;2411891;1033b,2119
0048;5700223;2415157;0049,0144;Berģenes iela;;Meža prospekts
0049;5700238;2415216;0048,0141
0132;5700683;2416415;3211,0290;Ezermalas iela
0142;5700379;2415431;0141,0291a;Gatartas iela
0141;5700368;2415453;0142,0049,3213
0143;5700074;2414895;0144,0448;Gdaņskas iela
0144;5700105;2414974;0143,0048
0163;5699745;2414306;0164,0449;Inčukalna iela
0164;5699702;2414161;0163,0189
0189;5699696;2413934;0190,0164;Kapsēta
0190;5699673;2413836;0189,2130
0292;5700468;2415595;0291,0291a;Mežaparks
0291;5700491;2415663;3240,0292,3212
0291a;5700441;2415466;0142,0292;Mežaparks (9.autobusa galapunkts)
0417;5699574;2413173;2130,2129;Sarkandaugava
0448;5699929;2414632;0449,0143;Stendera iela
0449;5699876;2414579;0448,0163
0105;5697126;2423003;0298,1156;Druvienas iela;;Mežciema iela
7983;5697298;2423995;0150,1154,8030;Hipokrāta iela
7982;5697219;2423415;1156,1154,0071;Līduma iela
1156;5697204;2423324;7982,0105
0127;5696881;2413563;3222,3230,0128;Ēveles iela;;Miera iela
8000;5697368;2414221;3221,0385;Kazarmu iela
7999;5697581;2414431;3220;Miera iela
0238;5701797;2413054;0239,3080;Lēdurgas iela;;Milgrāvja iela
0314;5702199;2413491;0313;Ostas iela
0313;5702204;2413431;0314,0239,0474
1258;5694112;2409890;1259,1257;Akmeņu iela;;Mūkusalas iela
1259;5694144;2409808;1258,5185,2117
1255;5692719;2410701;9104,1256;Bieķensalas iela
9104;5692665;2410666;1255,5348,1263
2052;5693468;2410512;2053,1260;Celtniecības pasaule
2053;5693448;2410475;2052,1261,2055
1257;5693802;2410173;1260,1258,3164;Laikraksts "Diena"
1260;5693694;2410246;1257,2052
1256;5693131;2410706;1261,1255,1254;Laivu iela
1261;5693141;2410684;1256,2053
1262;5692198;2410875;1276,5348;Mūkusalas rotācijas aplis
0179;5697765;2425485;0170,0176,0303;D/P "Jugla - 3";;Murjāņu iela
0232;5698057;2424411;0231,0302;Kvēles iela
0231;5698077;2424388;0232,0506
0303;5697883;2425014;0302,0179;Murjāņu iela
0302;5697900;2424910;0303,0232,0166
0706;5698771;2423040;0301
1497;5694550;2417192;1498,5458,0307;Lāčumuižas tirgus;;Nīcgales iela
1498;5694500;2417249;1497,1500
0307;5695018;2417314;0308,7990,1497;Nīcgales iela
2059;5695878;2417713;2062,0306,2061;Poliklīnika
2062;5695878;2417737;2059,0309
2060;5695473;2417528;2061,0308;Purvciems
2061;5695544;2417578;2060,2059
1114;5693584;2407106;1240,5010,1239;Āgenskalna tirgus;;Nometņu iela
1240;5693580;2407088;1114,3004
1372;5693360;2407741;1373,1370;Aurora
1373;5693367;2407757;1372,1242,5021
1239;5693810;2407216;1114,1115;Nometņu iela
5021;5693150;2408209;5022,1365,1373;Arkādijas parks;;Ojāra Vācieša iela
5022;5693160;2408238;5021,3199,3195
1364;5692828;2408053;1365,5351,5023;Torņakalna iela
1365;5692840;2408077;1364,5021
1340;5689950;2409844;1342,0712;Ozolciema iela;;Ozolciema iela
1342;5689917;2409647;1340,1343
1348;5689845;2408559;8041,0713;Ozolciema iela 18
8041;5689835;2408611;1348,1339
1341;5690240;2410263;1341a,2114;Ziepniekkalna D/P
1341a;5690216;2410235;1341,0712
0712;5690051;2410269;1341a,1340;Ziepniekkalns
0713;5689836;2408462;1348,5334
5517;5687546;2394576;5518,5516,5428;Alkšņu iela;;Ozolu iela
5516;5687560;2393894;5517,5515;Bērzu iela
5518;5687551;2395197;5517,5177;Kalngales
5515;5687671;2393001;5513,5516;Pīlādžu iela
5514;5687823;2392502;5513;Ziedkalnu iela
8076;5696787;2463187;7872;Elda;;P10  Inčukalns - Ropaži - Ikšķile
7872;5697494;2463343;8076;Ropaži
1541;5692197;2397975;1542,1554,8078;Lidosta Rīga;;P133
1542;5692122;2398120;1541,1543
1540;5692290;2399620;1543,1555,1539,5390;Priežkalni
1543;5692203;2399398;1540,1542
1539;5692688;2400233;1544,1540;Rūdas
1544;5692687;2400289;1539,8020
1161;5703642;2401981;1180,1162;Birzes iela;;Parādes iela
1180;5703693;2402115;1161,1160
1162;5703581;2401737;1161,1179,1188;Bolderājas D/P
1159;5704063;2402913;1182,1181;Plēksnes iela
1182;5704124;2403073;1159,1183
1160;5703849;2402437;1181,1180;Zvīņu iela
1181;5703929;2402645;1160,1159
5292;5696325;2415082;5293,0345,2079;A.Čaka iela;;Pērnavas iela
5293;5696339;2415097;5292,0443
0064;5696585;2414868;0344,3119,3118;Brīvības iela
2025;5695300;2415396;5090,2026,0274;Daugavas stadions
5145;5695586;2415297;2127,2026;J.Asara iela
5144;5695706;2415290;2067,8025;J.Asara iela/Grīziņkalns
0344;5696599;2414821;0064,0080;Pērnavas iela
8025;5695923;2415195;2079,5144;Vārnu iela
2079;5696011;2415195;8025,5292
0257;5693964;2417280;5454,0087;Maizes kombināts;;Pildas iela
5454;5693959;2417306;0257,0351
0351;5694194;2418056;0352,5454;Pildas iela
2036;5693198;2406954;1375,1376;Pilsoņu iela;;Pilsoņu iela
0707;5694519;2411529;3165,3011;Prāgas iela;;Prāgas iela
2082;5690703;2419949;2090;Bērnudārzs;;Prūšu iela
2090;5690670;2420008;2082,0249,0377
2083;5690979;2419506;2089,2088;Bultu iela
2089;5690934;2419547;2083,0100,0230
2091;5690404;2420888;2081,0202;Ikšķiles iela
2084;5691213;2419183;2088,0504;Malnavas iela
2088;5691156;2419241;2084,2083,3183
2087;5691450;2418548;2085,0477;Pasts
2081;5690412;2420897;2091,0155,0249;Prūšu iela
0115;5696244;2410605;0116,5472;Dzirnavu iela;;Pulkveža Brieža iela
0116;5696169;2410573;0115,8046,7984;Dzirnavu iela/ Hanzas iela
5472;5696764;2410632;2013,3093,0115;Pētersalas iela
2014;5696765;2410663;2013
0060;5695215;2411314;0058,1290b;Brīvības bulvāris;;Raiņa bulvāris
0058;5695239;2411261;0060,0373
0075;5694847;2411780;7980,2119,3245;Centrālā stacija
7980;5694764;2411835;2017,1028,0075
2017;5694757;2411817;7980,3126
0168;5695094;2411491;2086,3061;Inženieru iela
0373;5695391;2410928;0643,0259,0058;Raiņa bulvāris
1244;5694622;2408297;5091,0642;Kalnciema iela;;Raņķa dambis
1104;5694022;2409155;3007,3008;Uzvaras bulvāris
2054;5694688;2410555;3012,2131;Rātslaukums;;Rātslaukums
0626;5698680;2401397;0626a,0627,1666;Kleisti;;Rātsupītes iela
0626a;5698701;2401396;0626
0625;5698498;2402574;0627,0624,1197;Mikrobioloģijas institūts
0627;5698492;2402527;0625,0626
0624;5698376;2403177;1198,1199,0625;Pagrieziens uz Kleistiem
0368;5692254;2421708;0496,1553;Preču - 2;;Rencēnu iela
0708;5694492;2412414;0721,0078b;Riepnieku iela;;Riepnieku iela
5275;5686715;2417952;5508,5300;Pagr.uz Pļavniekkalnu;;Rīga - Bauska šoseja
5300;5687253;2417097;5301,5275;Pļavniekkalns
5301;5687350;2417036;5300,5510
7882;5694677;2435261;5071,5121;Ceļu meistars;;Rīga - Ērgļi autoceļš
5071;5694683;2435224;7882,5355
5087;5694499;2428838;5142,5287,1513;Darbnīcas
5120;5694662;2436310;5121,8067,5015;Elektrotīkli
5121;5694701;2436133;5120,7882
5122;5694564;2431442;5123,5356;Filču rūpnīca
5123;5694571;2431391;5122,5154
4753;5694514;2429973;5287,5153;Pagrieziens p/f "Jugla"
5287;5694509;2429750;4753,5087
5355;5694610;2433091;5356,5071;Saveļi
5356;5694619;2432959;5355,5122
5407;5694463;2427804;5408,5237;Ulbroka
5408;5694457;2427766;5407,5238
8052;5685674;2406394;4159;Gaismas;;Rīga - Jelgava šoseja
5428;5688016;2394587;5429,5517;Jaunmārupes sākumskola;;Rīga - Mārupe autoceļš
5177;5687847;2395667;5176,5518;Ķienes
5176;5687891;2395837;5177,5330
5217;5689277;2401394;5216,5438;Mežciems
5311;5688640;2398807;5310,8083;Puķulejas
5310;5688657;2398897;5311,5076,5439
5315;5689764;2403474;5316,5441;Purmaļi
5330;5688150;2396771;5329,5176;Riekstiņi
5329;5688170;2396859;5330,4848
5361;5689983;2404377;5362,5316;Senči
4848;5688317;2397430;8083,5329;Vētras
8083;5688404;2397857;4848,5311
5439;5688991;2400277;5438,5310;Vizmas
5440;5689427;2402080;5441,5216;Zaigas
8075;5706425;2447510;5127;Remberģi;;Rīgas - Siguldas šoseja
1310;5687642;2412251;1314,1311;Baloži;;Rīgas iela
1314;5687648;2412329;1310,1309
5520;5712930;2427912;5521;Carnikava
5521;5712895;2427906;5520,5519,5523
1312;5687049;2411039;1313,8089;Kantoris
1307;5688464;2415321;5259,1308;Pagrieziens uz Baložiem
5273;5694581;2391964;4131,4977,5272;Pagrieziens uz Piņķiem
4977;5694416;2391061;8073,5273,5081;Piņķi
8073;5694437;2391043;4977
1311;5687494;2411869;1313,1310;Skola
1313;5687479;2411883;1311,1312
1316;5688357;2414678;1308,1315;Sūkņu stacija
1404;5692284;2407581;1403,5024;Robežu iela;;Robežu iela
1434;5694921;2401432;1436,1459;Anniņmuižas iela;;Rostokas iela
1436;5694940;2401262;1434,1433,1438
1437;5694955;2400609;1438,1439,1083;Autostāvvieta
1438;5694942;2400642;1437,1436
1439;5694956;2400131;1440,1437;Rostokas iela
1435;5694800;2402535;1461,0649;Zolitūdes D/P
1440;5694971;2399987;1448,1439,1082;Zolitūdes iela
1425;5693908;2403118;1426,1417;Rucavas iela;;Rucavas iela
8046;5696224;2410355;0116,3064;Rūpniecības iela;;Rūpniecības iela
9106;5698911;2416636;3216,9105;Rusova iela;;Rusova iela
2085;5691578;2418611;2087,0402;Rušonu iela;;Rušonu iela
0298;5697037;2423003;0297,0105;Motormuzejs;;S.Eizenšteina iela
0297;5697016;2422998;0298,0439,0188
0408;5696150;2423227;1158,0407;S.Eizenšteina iela
0439;5696614;2423355;1157,0527,0297;Sporta bāze  "Biķernieki"
0171;5691996;2418378;0172,0403;Jāņavārti;;Salaspils iela
0172;5692044;2418347;0171,0199,1486
0199;5692166;2418155;0200,0172,0198;Ķengarags
0200;5692206;2418132;0199,1507
0412;5693210;2416922;0250,0719;Salaspils iela
0432;5692750;2417419;0431,3155;Slāvu iela
0431;5692763;2417428;0432,0719,1604
1254;5692935;2411422;1333,1253,1256;Lucavsala;;Salu tilts
1333;5692913;2411452;1254,5348
5348;5692603;2411015;9104,1333,1262;Salu tilts
1253;5693257;2411941;1334,2124,1254;Zaķusala
1334;5693258;2412003;1253
0718;5700292;2412313;3241,3078;Sarkandaugava;;Sarkandaugavas iela
0077;5694812;2412153;0711,0076;Centrālā stacija;;Satekles iela
0074;5694811;2412342;1600,0711,2073;Elizabetes iela
0146;5694701;2413987;2005,0099;Ģertrūdes iela
0711;5694832;2412221;0077,0074,0709;MTS
0076;5694777;2412023;1028a,0077;Stacijas laukums
2105;5691139;2410364;2104,2110,2116;Graudu iela;;Saulkalnes iela
2103;5691376;2409951;2111,2110;Kartupeļu iela
2111;5691418;2409912;2103,2102
2102;5691506;2409749;1270,1271,2111;Saulkalnes iela
2110;5691190;2410318;2105,2103,3189
1383;5691344;2405062;1547;Brūkleņu iela;;Sējas iela
1547;5691345;2405078;1383,1384,0012
1384;5691315;2405457;1385,1547;Kurmenes iela
1385;5691318;2405513;1384,1386
1386;5691268;2405865;1387,1385,5205;Kursīšu iela
1387;5691268;2405927;1386,5360
9102;5697061;2413877;9103,3231,0152;Miera iela;;Senču iela
9103;5697046;2413852;9102,3230
1502;5694555;2418185;5469,1501;Gaismas iela;;Sesku iela
1500;5694483;2417611;1501,1498;Skaņu iela
1501;5694494;2417613;1500,1502
5457;5694594;2419160;0476,5141,5088;Skola
1601;5690748;2422144;1706,1465;Malēju iela;;Sila iela
1706;5690665;2421570;1464,1601,0154;Sila iela
0061;5698861;2423745;0424,3106;Brīvības gatve;;Silciema iela
0424;5698831;2423738;0061,0505,0301;Silciema iela
0505;5698551;2423902;0506,0424;Veikals
0506;5698470;2423926;0505,0231
1184;5702852;2404459;1185,1151;Platā iela;;Silikātu iela
1185;5702843;2404458;1184,1187
1187;5702791;2403418;1186,1185;Silikātu iela
1186;5702808;2403395;1187,1188
1037;5696968;2411942;1038,0253,0020;Skanstes iela I;;Skanstes iela
1038;5696885;2411855;1037,0346,0340
0438;5698595;2432132;0437,0354,0342;Šoseja;;Skolas iela
0437;5698579;2432193;0438,0237
5368;5692007;2394420;5369,1704;Silkalēji;;Skultes iela
5369;5692034;2394249;5368,5042
5000;5691930;2395243;8078,1703;Skulte
8078;5691944;2395250;5000,1541
1703;5691973;2394774;1704,5000;Skultes stadions
1704;5691993;2394754;1703,5368
1105;5694209;2408186;3042,1106;A.Grīna bulvāris;;Slokas iela
1109;5694191;2408226;3042
1041;5695078;2406604;1091,3038;Baldones iela
1091;5695066;2406590;1041,3047,1116
1093;5694601;2407388;3040,2033,1040;Kalnciema iela
1107;5694551;2407458;3045,1039,3040
1040;5694822;2407250;3046,0641,1093;Mārtiņa iela
1092;5694860;2407197;3039,0612
1106;5694305;2407821;3044,1105,5091;Nometņu iela
1108;5694347;2407679;3041,3045
0618;5696188;2403941;0634,0617;Observatorija
0634;5696169;2403878;0618,8007
0617;5696132;2404783;0635,0618;Saulgožu iela
0635;5696119;2404854;0617,1233,3026
1110;5693990;2409065;3007,3014,3197;Uzvaras bulvāris
1219;5697102;2405001;1210,1207;Nordeka centrs;;Spilves iela
1210;5697115;2405051;1219,1218
1218;5697195;2405225;1211,1210;Tilts
1211;5697203;2405275;1218,1217,1127
1492;5695445;2413217;2064,1494,3130;A.Čaka iela;;Stabu iela
0037;5695193;2413737;0440,2077,1493;Avotu iela
0440;5695220;2413706;0037,1494;Stabu iela
1491;5695772;2412536;1496,1800,2002
1800;5695869;2412341;1491,5463,0145,0122
0324;5706141;2408007;0323,1607;Paegles;;Stāvvadu iela
0323;5706150;2407991;0324,7993
7993;5707020;2408865;7994,0323;Stāvvadu iela
7994;5707018;2408889;7993,0264
7997;5695516;2421939;7998,9093,0407;Latvenergo;;Stigu iela
7998;5695507;2421900;7997,0725
5076;5689163;2398682;5075,5310;Čiekuri;;Stīpnieku ceļš
5075;5689221;2398654;5076,5447
5390;5691626;2401136;5389,5189,1540;Stīpnieki
2057;5696185;2419068;2066,2065;Bērnudārzs;;Stirnu iela
2066;5696248;2419245;2057,2125,0243
2056;5696530;2419515;2080,1530;Ieriķu iela
2080;5696498;2419525;2125,2056,0110
2125;5696483;2419500;2080,2066
2058;5695889;2418477;2065,0450;Ūnijas iela
2065;5696005;2418696;2058,2057,0279
1152;5703279;2404814;8050,1151;Bolderājas tirgus;;Stūrmaņu iela
1426;5693936;2403042;1425,1429,0650;Rucavas iela;;Šampētera iela
0062;5698357;2420956;0435,0205;Brīvības gatve;;Šmerļa iela
0206;5698210;2421039;0205,0433;Kinostudija
0205;5698234;2421027;0206,0062
0434;5697995;2421296;0433,0341;Slimnīca "Šmerlis"
0433;5698039;2421267;0434,0206
0435;5698430;2420918;2018,0062;Šmerļa iela
1336;5691613;2409192;1337,1355,1360;Bērzupes iela;;Tadaiķu iela
1337;5691594;2409292;1336,1270
0530;5686502;2426973;0531,0095;10.līnija;;Taisnā iela
0531;5686527;2426965;0530,0507
0095;5686260;2426875;0096,0530;Dārziņi-1
0503;5686739;2427055;0507,0326;Veikals
0507;5686721;2427069;0503,0531,0533
2096;5697213;2417938;2097,2098;Bajāru iela;;Tālivalža iela
2097;5697102;2417901;0465,1509,2096;Biķernieku iela
2095;5697532;2418262;2099,2098,2019;Tālivalža iela
2098;5697314;2418045;2096,2095;Zalkšu iela
2028;5695906;2414387;2041,2027;A.Čaka iela;;Tallinas iela
2041;5695897;2414368;2028,0469
0065;5696357;2413619;2112,0468,2031;Brīvības iela
2030;5696268;2413786;0468,2022,2040
2026;5695454;2415138;2043,5145,2025,0244;J.Asara iela
2043;5695559;2415010;2026,2067,2042,2078
2029;5696065;2414118;3121,0469;K. Barona iela
2040;5696112;2414007;3131,2030
2042;5695662;2414820;2027,2043;Krāsotāju iela
2031;5696530;2413365;3229,3223,0065;Miera iela
2027;5695702;2414773;2042,2028;Vārnu iela
2012;5695264;2411597;0700,1490;Brīvības bulvāris;;Tērbatas iela
2011;5695480;2412333;2001,2002,7987;Lāčplēša iela
2001;5695430;2412253;2011,3128,2134;R.Blaumaņa iela
2000;5695259;2411633;0700;Tērbatas iela
0700;5695257;2411598;2012,2000,0059,1290a
5023;5692394;2408055;5024,1364,3202;Ārlavas iela;;Tēriņu iela
5024;5692388;2408008;5023,1404
5060;5691414;2406880;5061,5359;Bramberģes iela
5061;5691477;2406944;5060,1399
5134;5691944;2407557;5133;Ģimnastikas iela
1401;5691873;2407465;5133,1400
5359;5691229;2406601;5360,5060,2047;Sējas iela
5360;5691224;2406561;5359,1387
1399;5691710;2407308;1400,5061;Vecmoku iela
1400;5691713;2407343;1399,1401
7975;5699577;2412949;2129,0416;Kultūras nams "Draudzība";;Tilta iela
0415;5699418;2412493;3074,3085;Sarkandaugava
0416;5699484;2412680;3085,7975
0016;5705355;2406254;0017,0312;Aizvēja;;Traleru iela
0017;5705278;2406302;0016,0031,8014
0263;5706097;2405516;0311;Mangaļsala
0311;5705581;2406059;0312,0263;Osta
0312;5705545;2406067;0311,0016
2035;5693301;2407082;1371;Tukuma iela;;Tukuma iela
2074;5694583;2412525;2073,0721,7749g;Dzirnavu iela;;Turgeņeva iela
2073;5694593;2412520;2074,0074;Turgeņeva iela
0721;5694514;2412404;0708,2074
0024;5699844;2411718;0025,0277;Aptiekas iela;;Tvaika iela
0023;5699936;2411791;0025,3076
6684;5694419;2411266;3011,3164,1025a;Autoosta
0266;5700587;2412007;3078;MAN - TESS
0278;5699621;2411813;0277,0383;Mēbeļu kombināts
0277;5699645;2411776;0278,0024
0384;5699415;2412048;0383,3086;Rīgas psihoneiroloģiskā slimnīca
0383;5699442;2411993;0384,0278
9092;5695325;2422179;9093;Latvenergo;;Ulbrokas iela
9093;5695319;2422149;9092,7997,5198
0413;5694430;2421740;0414,5198,9101;Salnas iela
0414;5694327;2421664;0413,0488
0488;5693898;2421529;0487,0414;Ulbrokas iela
0487;5693871;2421487;0488,0005,7977
0334;5699042;2429154;0335,0333;Pagrieziens uz Upesciemu;;Upesciema iela
0335;5699052;2429163;0334
0353;5698757;2430364;0354,0461;Pilsētas robeža
0354;5698740;2430400;0353,0438
0462;5698865;2429872;0461;Tadenavas iela
0461;5698853;2429875;0462,0464,0353
1382;5691976;2404148;8082,1381;Upesgrīvas iela;;Upesgrīvas iela
8082;5691961;2404111;1382,5410,5375
5185;5694245;2409700;5186,1259,5003;Kuģu iela;;Uzvaras bulvāris
5186a;5694143;2409441;3008,3013
5186;5694192;2409531;3013,5185
1111;5693882;2408947;3198,3196;Slokas iela
1243;5693934;2409082;3197,3198
7901;5672176;2418652;8044,8062;Tekstilnieks;;V27  Misas tilts - Dzērumi
5015;5692712;2437008;8081,2128,5120;Tuberkulozes slimnīca;;V34 Līči - Upeslejas
8081;5692707;2436982;5015,4771
6394;5695463;2443907;6398,8067;Silakrogs;;V68 Dāvidi- Zaķumuiža - Bajāri
8027;5696870;2448449;6398b,6397;Skola/Padome
6398b;5696797;2448519;8027
6398;5696926;2448212;6397,6394;Zaķi
6397;5696926;2448281;6398,8027;Zaķumuiža
8054;5669827;2411512;8062;Jāņupes veikals;;V7 Baloži - Plakanciems - Iecava
8062;5673192;2410950;8054,8077,7901;Mellupi - 2
8070;5678773;2407534;8077;Pagr.uz Olaini
8077;5676609;2410870;8070,8062;Sakaru nodaļa
0491;5696434;2417690;0490,0499;Ūnijas iela/Pasts;;Vaidavas iela
0499;5696207;2417618;2126,0491;Vaidavas iela
2126;5696190;2417612;0499,0306,0445
1360;5691841;2409210;1335,1336;Vaiņodes iela;;Vaiņodes iela
1335;5691881;2409251;1360,1361,3204;Vaiņodes iela/K.Ulmaņa gatve
1339;5689908;2409210;1343,8041;94.vidusskola;;Valdeķu iela
1343;5690018;2409268;1339,1338a,1342
1345;5690849;2409529;1346,2106,1353;Graudu iela
1346;5690787;2409495;1345,2107
2107;5690468;2409387;2108,1346,1351;J.Čakstes gatve
2108;5690461;2409401;2107,1344
1271;5691563;2409720;2102;Tadaiķu iela
1270;5691506;2409669;2102,1337;Valdeķu iela
1338a;5690235;2409351;1338,1343;Ziepniekkalns
1338;5690266;2409342;1338a,1344;Ziepniekkalns 4
1344;5690345;2409375;1338,2108
2117;5694057;2409614;3013,1259;braucot uz 2.parku;;Valguma iela
0274;5695104;2414927;0271,0245,2025;Matīsa iela;;Valmieras iela
0271;5695063;2414834;5460,0274
5460;5695044;2414773;0271,5467;Valmieras iela
0330;5707055;2410504;0331,0500;Pagrieziens uz Mangaļiem;;Vecāķu prospekts
0304;5705534;2410454;0305,0337;Skanstnieki
0305;5705585;2410450;0304,0442
0444;5705930;2410606;0442,0523;Stacija "Vecdaugava"
0442;5705901;2410565;0444,0305
0500;5707657;2410981;0330,5527;Vecāķi
0331;5707027;2410492;0330,0265,0524;Vecāķu prospekts
0523;5706369;2410615;0524,0444;Zvejas iela
0524;5706425;2410589;0523,0331
1606;5705491;2407238;1607,0032,0013;Veiksmes iela;;Veiksmes iela
1607;5705529;2407261;1606,0324
1409;5693165;2405182;1410,1408;Astras iela;;Ventspils iela
1410;5693162;2405101;1409,1411
1411;5693372;2404579;1412,1410;Jaunmoku iela
1412;5693406;2404476;1411,5328,5430
0087;5694050;2416645;7981,0392,0257;7. AP;;Vestienas iela
7981;5694014;2416588;0087,0035;DUS
0392;5694291;2416507;0087,5458;RP SIA "Rīgas satiksme"
0452;5694958;2416322;0451,0509;Stopiņu iela
0451;5694979;2416339;0452,0310,0098
0510;5694652;2416469;0509,5458;Vietalvas iela
0509;5694673;2416403;0510,5452,0452
5128;5705057;2443227;5127,8053;Garkalne-2;;Vidzemes šoseja
5127;5705064;2443371;5128,8075
8053;5704471;2441411;5126,5128;Garkalnes pagasts
2047;5690614;2408250;1351,1354,5359;Ābolu iela;;Vienības gatve
1351;5690546;2408276;1352,2047,2107;DUS
1352;5690503;2408226;1351,5334
1354;5690934;2408524;1353,2047;Graudu iela
1353;5691031;2408611;1354,2049,1345
1355;5691672;2408794;1356,1336,1359;Ģimnastikas iela
1356;5691626;2408760;1355,2048
2048;5691379;2408721;2049,1356;Irbenes iela
2049;5691353;2408692;2048,1353
5333;5689974;2407851;5334,5205,1558;Mežkalna  iela
5331;5691919;2408835;3203,1359;Robežu iela/Bērnu slimnīca
1357;5692063;2408896;3203,3192
1362;5692692;2409031;1363;Satiksmes iela
1363;5692693;2409054;1362,3194,1268
5334;5689968;2407883;5333,0713,1352;Vienības gatve
0051;5699947;2413233;0050,7996;Bērnudārzs;;Viestura prospekts
0050;5699897;2413220;0051,2130
0217;5700913;2412898;0216,3079;Kopmītne
0216;5700960;2412928;0217
0239;5701915;2413212;s18259,0238,0313;Lēdurgas iela
7996;5700374;2412956;0365,3077,0051;Poliklīnika
0365;5700508;2412892;7996,3078
5458;5694498;2416891;1497,0510,0392;55.skola;;Vietalvas iela
5452;5694708;2415952;5453,0509;Matīsa kapi
5453;5694729;2415678;5468,5452
1117;5694837;2405792;1237,1236;Kuldīgas iela;;Vīlipa iela
1237;5694763;2405970;1117,1116
0471;5698961;2418672;0472,0512;TEC-1;;Viskaļu iela
0472;5698970;2418682;0471,4001
0512;5698590;2418474;0104,0471;Viskaļu iela
0299;5689777;2421250;0515,0723,0201;Muita;;Višķu iela
2122;5689953;2421599;0300,0723;Višķu iela
0723;5689923;2421506;2122,0299
0300;5689993;2421620;2122,0425;Višķu iela/trol. galapunkts
1139;5699412;2408622;1138,8072;Jaunā pietura;;Voleru iela
8072;5698939;2408298;1141,1139;Pagrieziens uz Voleriem
1137;5699772;2408683;1138,1136;Veikals
1138;5699759;2408666;1137,1139,1142
1136;5700384;2408705;1137,1144,0429;Voleri
5112;5691685;2435094;5113,5111;Dzelzceļa pārbrauktuve;;Volgas iela
5113;5691699;2435051;5112,5208
4771;5691821;2436210;4771a,5352,8081;Saurieši
1418;5693391;2402847;1537,1419,1429;Apuzes iela;;Volguntes iela
1415;5693945;2404529;1416,1546,3021;Candera iela
1416;5693780;2404018;0716,1413,1415;Irlavas iela
1419;5693190;2402482;1422,1418,1421;Pleskodāles iela
1417;5693632;2403542;1424,1425;Rucavas iela
1420;5692964;2402009;1421,5449;Zolitūdes iela
2124;5693483;2411766;1253,3169;Televīzijas centrs;;Zaķusalas krastmala
0716;5693920;2403833;1416,0647;Šampēteris;;Zalves iela
0647;5694393;2403896;0648,0716,3022;Zasulauka iela;;Zasulauka iela
0648;5694404;2403868;0647,0645
1073;5695905;2400659;1076,1075,1072;Skola;;Zentenes iela
1076;5695895;2400660;1073,1084
1074;5696063;2400026;1075,1061,1608;Tirdzniecības centrs
1075;5696011;2400183;1074,1073
5279;5695071;2393612;4132,1549;Priežciems;;Ziedu iela
1554;5692774;2398579;1555,1541;Latvijas Pasts;;Ziemeļu iela
1555;5692634;2399223;1554,1540;Miglas iela
1323;5689555;2414101;1332,1331;Elektriķi;;Ziepniekkalna iela
1326;5690703;2412848;1329,1327;Kalētu iela
1329;5690677;2412833;1326,1330
1324;5689803;2413773;1331,1325;Neilandi
1331;5689777;2413765;1324,1323
1325;5690382;2413106;1330,1324,1287;Priekules iela
1330;5690424;2413032;1325,1329
1332;5689430;2414217;1323,1292;Rīgas robeža
1327;5691212;2412443;1328,1326;Šautuves iela
1328;5691229;2412395;1327,3208
1443;5694343;2400340;1446,1445,5089;Gramzdas iela;;Zolitūdes iela
1446;5694418;2400311;1443,1442
1442;5694611;2400134;1447,1446,5218;Mežmalas iela
1447;5694749;2400056;1442,1441
1441;5694888;2399925;1448,1447;Rostokas iela
1448;5694915;2399929;1441,1440
3015;5694141;2408265;3006,1112;A.Grīna bulvāris;;Aleksandra Grīna bulv.;;Āgenskalns
3006;5694167;2408285;3015,3043,3014;Slokas iela
3016;5693674;2407712;1242,1112;E. Smiļģa iela;;Bāriņu iela
3004;5693558;2407082;1240,3017,1371;Āgenskalna tirgus;;Mazā Nometņu iela
3017;5693564;2407014;3004,3003
3005;5693660;2407589;1242,5011;E. Smiļģa iela
3002;5693732;2405931;3019,3018,1408;Ormaņu iela
3019;5693741;2405911;3002,3020
3003;5693668;2406295;3018,3017;Pārslas iela
3018;5693672;2406267;3003,3002
3196;5693295;2408390;3199,1111;Arkādijas parks;;Ojāra Vācieša iela
3199;5693280;2408341;3196,5022
3042;5694202;2408228;1109,3043,1105;A.Grīna bulvāris;;Slokas iela
3043;5694196;2408258;3042,3006
3040;5694598;2407403;1093,1107,5384;Kalnciema iela
3045;5694547;2407447;1107,1108
3039;5694851;2407216;1092,3046;Mārtiņa iela
3046;5694821;2407244;1040,3039
3041;5694341;2407707;1108,3044;Nometņu iela
3044;5694298;2407812;1106,3041
3014;5694011;2409027;1110,3006;Slokas iela
3007;5693998;2409079;1110,1104;Uzvaras bulvāris
3197;5693962;2409116;1243,1110;Slokas iela;;Uzvaras bulvāris
3198;5693915;2409031;1243,1111
3008;5694132;2409441;5186a,1104;Valguma iela
3013;5694156;2409498;5186a,5186,2117
3185;5691458;2414072;5137,5295;Bišumuiža;;Bauskas iela;;Bišumuiža
3186;5691592;2413505;1281,5136;Doles iela
3210;5691584;2413396;1281,1280
3209;5691570;2412389;3187,1280;Mazā Bauskas iela
3122;5695730;2413350;3226,0270;Bērnu pasaule;;0;;Centrs
2131;5694960;2410079;2054,3098,0611;Poļu gāte;;11.novembra krastmala
3100;5694576;2411321;1025;13.janvāra iela;;13.janvāra iela
3061;5694863;2411399;3099,0168;Nacionālā opera;;Aspazijas bulvāris
3099;5694836;2411414;3061,3242
3166;5695875;2410002;3097,2132,3064;Ausekļa iela;;Ausekļa iela
3011;5694411;2411433;6684,0707;Centrāltirgus;;Centrāltirgus iela
2132;5695849;2409550;3166;Osta;;Eksporta iela
3065;5696826;2409791;3095,3096,0730;Pētersalas iela
3064;5696193;2409836;3096,8046,3166;Vašingtona laukums
3096;5696259;2409830;3064,3065
2133;5695084;2412124;3127,3124,0709;K. Barona iela;;Elizabetes iela
2134;5695323;2411925;0194a,2001;Tērbatas iela
3242;5694809;2411489;3099,3245;Aspazijas bulvāris;;K.Barona iela
3130;5695672;2413238;3226,1495,1492;Bērnu pasaule
3134;5696804;2415100;2023,0399;Brīvības iela
3124;5695215;2412310;3128,2133,0114;Dzirnavu iela
3128;5695237;2412357;3124,2001
3123;5695459;2412803;3129,2010;Ģertrūdes iela
3129;5695441;2412772;3123,2008
3118;5696758;2415066;0219,0064;K. Barona iela
3125;5694995;2411866;1033b,3127,0167;Merķeļa iela
3127;5695037;2411955;3125,2133
3119;5696559;2414934;0064,3133;Pērnavas iela
3133;5696499;2414873;3119,0003
3120;5696280;2414438;3132,0081,0003;Sporta nams "Daugava"
3132;5696258;2414398;3120,3121
3121;5696098;2414075;3131,2029,3132;Tallinas iela
3131;5696079;2414045;3121,2040
3063;5695742;2410083;3097,0121;Ausekļa iela;;Kronvalda bulvāris
3097;5695771;2410053;3063,3166;Kronvalda bulvāris
3062;5695375;2410419;3098;Nacionālais teātris
3098;5695327;2410458;3062,0610,2131
2136;5694217;2411847;3168,2135,3167;Maskavas iela;;Maskavas iela
3226;5695727;2413291;3122,3130;Bērnu pasaule;;Matīsa iela
3227;5695951;2412900;2020,1496;Brīvības iela
3224;5696356;2413188;3228,3229,2112,0340;A/S "Laima"/Arēna "Rīga";;Miera iela
3228;5696338;2413173;3224,0268
3220;5697579;2414444;7999,3232,0385;Brasas stacija
3232;5697615;2414488;3220,0015
3225;5696016;2412915;2020;Brīvības iela
3222;5696875;2413556;0127,3223;Ēveles iela
3221;5697320;2414186;3231,8000,0153;Kazarmu iela
3231;5697304;2414180;3221,9102
3230;5696898;2413594;0127,0284,9103;Mēness iela
3223;5696605;2413359;2031,3222;Tallinas iela
3229;5696525;2413313;2031,2039,3224
3095;5696853;2409827;3065,3066;Eksporta iela;;Pētersalas iela
3066;5696816;2410092;3094,3095;Katrīnas iela
3094;5696809;2410150;3066,3067
3165;5694540;2411527;0707,1025b,1251b;Prāgas iela;;Prāgas iela
3245;5694834;2411592;3242,3126,0075;Radio iela;;Radio iela
3126;5694765;2411636;3245,1027,2017;Stacijas laukums
2135;5694337;2412121;0078b,2136;Prāgas iela;;Turgeņeva iela
3218;5698429;2415566;3234,3233;2.Meža kapi;;Gaujas iela;;Čiekurkalns
3234;5698431;2415569;3218,3244
3244;5698479;2415661;0428,3234
3219;5698258;2415073;0473,3233,0015;Brāļu kapi
3233;5698274;2415121;3219,3218
3217;5698646;2416046;3235,0406;Gaujas iela
3235;5698594;2415971;3217,0428
3216;5698953;2416465;3236,9106,0405;Rusova iela;;Ķīšezera iela
3236;5698979;2416483;3216,3237
3058;5696007;2405983;3103,0614,1124;Slokas iela;;Dagmāras iela;;Dzirciems
3037;5695128;2405380;3048,1042;Dzirciema iela;;Jūrmalas gatve
3048;5695132;2405427;3037,1090,1118;;;Kandavas iela
3038;5695066;2406659;1041,0612;Baldones iela;;Slokas iela
3060;5695416;2406294;3101,3102,0639;Dārza iela
3101;5695380;2406293;3060,3047,1090
3059;5695712;2406211;3102,3103;Eiženijas iela
3047;5695076;2406559;1091,3101;Kuldīgas iela
2127;5695598;2415267;5145,2067;J.Asara iela;;J.Asara iela;;Grīziņkalns
3057;5696326;2406178;3104,3105,0615;Buļļu iela;;Dagmāras iela;;Iļģuciems
3104;5696290;2406137;3057,0614
3056;5696488;2406450;3105,3055;Bēnes iela;;Lilijas iela
3055;5696499;2406939;1229,3056,1227;Iļģuciems
3105;5696475;2406360;3056,3057;Lilijas iela
3102;5695692;2406232;3059,3060;Eiženijas iela;;Slokas iela
3103;5695926;2406019;3058,3059;Saldus iela
3033;5695981;2402056;3052,1086;Kleistu iela;;Anniņmuižas bulvāris;;Imanta
3052;5695986;2402042;3033,1071,9082
3034;5695758;2402675;3051,1087;Imantas iela;;Bebru iela
3051;5695759;2402660;1070,3034,1086
3032;5696094;2401415;3053,1085,1071;Anniņmuižas bulvāris;;Dammes iela
3053;5696107;2401401;3032,0715;Dammes iela
3031;5696624;2400808;3054,1059;Imanta
3054;5696579;2400886;0715,3031
3049;5695278;2403502;3036,1088,1043;Kurzemes prospekts;;Jūrmalas gatve
3050;5695687;2403487;3035,1045;Bebru iela;;Kurzemes prospekts
3036;5695252;2403480;3049,1463;Jūrmalas gatve
3035;5695661;2403475;3050,1044,1087;Kurzemes prospekts
3024;5695118;2404600;3028,3029,1042;Jūrmalas gatve;;Tapešu iela
3028;5695214;2404579;3024,3027,1043
3025;5695533;2404559;3027,3026,1044;Radiorūpnīca
3027;5695511;2404559;3025,3028
3026;5695761;2404630;3025,1119,0635;Tapešu iela
3080;5701711;2412302;0238,3081;Mīlgrāvis;;Ezera iela;;Jaunmīlgrāvis
3078;5700598;2412510;3082,0365,0266,0718;Gaujienas iela;;Sliežu iela
3082;5700625;2412513;3078,3079
3079;5700940;2412555;3081,0217,3082;Tvaika iela
3081;5701000;2412517;3079,3080
3106;5698964;2424083;3146,0180,0061;Jugla;;Brīvības gatve;;Jugla
3146;5698992;2424073;3106;Jugla (izk.)
3107;5698815;2423016;3145,0301;Mārkalnes iela
3145;5698807;2422958;3107,0267
3108;5698719;2422198;3144,0047;Tirzas iela
3144;5698724;2422245;3108,0045
3156;5692989;2416335;3176,0250;Atpūtas centrs "Lido";;Maskavas iela;;Krasta rajons
3176;5692971;2416346;3156,8026
3155;5692538;2416831;3177,0432;Krasta masīvs
3177;5692518;2416841;3155,0162,0203
3154;5692179;2417080;3178,0203;Keramika;;;;Ķengarags
3178;5692151;2417096;0204,3154
3153;5691826;2417338;3179,0198;Ķengaraga iela
3179;5691809;2417347;3153,0197
3152;5691475;2417553;0369,3180;Prūšu iela
3180;5691509;2417527;3152,0197
3150;5691013;2417983;3182,0404;Rušonu iela
3182;5691030;2417956;3150,0401
3149;5690853;2418356;0262,3183;Sabiedriskais centrs
3183;5690821;2418427;3149,0261,2088
3151;5691253;2417715;0477,3181;Tirdzniecības centrs
3181;5691218;2417748;0478,3151
3148;5690644;2418803;3184,3147;Tirdzniecības centrs "Dole"
3184;5690657;2418779;3148,0261;Tirdzniecības centrs "Dole"  (izk.)
3147;5690562;2418879;3148,0230,1321;Tirdzniecības centrs "Dole" (galastac.)
3158;5693589;2415598;3174,3175;Aiviekstes iela;;;;Maskavas Forštate
3174;5693659;2415472;3158,0035,3159;Balvu iela
3164;5694297;2411290;3167,6684,1257;Centrāltirgus
3160;5693870;2414073;3172,3173,5002;Daugavpils iela
3172;5693905;2413982;3160,3161
3162;5693990;2412671;3170,1102;Elijas iela
3170;5693987;2412629;3162,3169
3169;5694055;2412181;3163,3170,2124;Jēzus Baznīcas iela
3161;5693959;2413773;0366,3172;Katoļu iela
3171;5693954;2413542;0366,1102
3157;5693377;2415953;3243,0381;Lubānas iela
3175;5693425;2415868;3243,0382,3158
3167;5694266;2411422;3164,2136;Maskavas iela
3159;5693787;2414642;3173,0276,3174;Mazā Kalna iela
3173;5693785;2414596;3159,3160
3243;5693384;2415880;3157,3175,5397;No 3.depo
3163;5694173;2411917;3168,3169;Turgeņeva iela
3168;5694185;2411870;3163,2136
3214;5699743;2416141;3238,3215,0457;Hamburgas iela;;Kokneses prospekts;;Mežaparks
3238;5699768;2416127;3214,3239
3240;5700469;2415705;0291;Mežaparks
3215;5699370;2416366;3237,3214,0209;Mirdzas Ķempes iela
3237;5699352;2416375;3215,3236
3213;5700055;2415951;3239,0141,0484;Visbijas prospekts
3239;5700027;2415974;3213,3238,0421
3211;5700691;2416374;0132,3212;Ezermalas iela;;Meža prospekts
3212;5700556;2415748;0291,3211;Mežaparks
1154;5697288;2423740;7983,7982;Mežciema iela;;Mežciema iela;;Mežciems
1158;5696171;2423220;0408;Biķernieku iela;;S.Eizenšteina iela
3072;5698736;2412158;7985,7986;1.trolejbusu parks;;Ganību dambis;;Pētersala
3088;5698758;2412162;7985,0140
3069;5697712;2411400;3091,3068;Bukultu iela
3091;5697755;2411436;3069,0375
3067;5696771;2410535;3093,3094;Ganību dambis
3068;5697471;2411205;0252,3069;Lugažu iela
3092;5697446;2411184;0252,0253
3093;5696787;2410603;5472,3067,0346;Pētersalas iela
3071;5698319;2411900;3089,0374;Rāmuļu iela
3089;5698356;2411929;3071,0136
3070;5697940;2411590;3090,0374;Rankas iela
3090;5697928;2411580;3070,0375
3086;5699316;2412297;3074,0486,0388,0384;Duntes iela;;Duntes iela;;Sarkandaugava
3073;5699025;2412221;3087,0140;Rūpnīca "RER";;Ganību dambis
3087;5699077;2412210;0387,3073
3077;5700231;2412389;3083,7996;Aldaris;;Lāpstu iela
3083;5700221;2412368;3077,3241,3076
2130;5699617;2413326;0417,0190,0050;48.autobusa galapunkts (neiebraucot lokā) pagaidu;;Meža prospekts
3241;5700222;2412334;3083,0718;Aldaris;;Sarkandaugavas iela
3076;5699867;2412367;3084,0023,3083;Allažu iela
3084;5699815;2412350;3076,3075
3075;5699543;2412592;3085,3084;Sarkandaugavas iela
3085;5699510;2412628;0416,3075,0415;Tilta iela
3074;5699344;2412329;3086,0415;Duntes iela;;Tilta iela
2129;5699564;2412993;7975,0417;Kultūras nams "Draudzība" pie ieejas (pagaidu)
3109;5698630;2421433;3248,0436;Meža skola;;Brīvības gatve;;Šmerlis
3143;5698637;2421506;3248
3248;5698633;2421499;3143,3247,3109
3247;5698620;2421517;3248,0047
3110;5698518;2420723;3142,3111;Sporta akadēmija
3142;5698540;2420816;2018a,3110
1157;5696575;2423355;0439,0542;Sporta bāze  "Biķernieki";;S.Eizenšteina iela
2019;5697769;2418097;2024,2095,0038,3114;Palmu iela;;Brīvības gatve;;Teika
3117;5697115;2415993;0399,3135,8002;Rūpnīca "VEF"
3135;5697148;2416104;3117,0400
3114;5697935;2417670;3138,2019;45.vidusskola;;Ropažu iela
3138;5697900;2417552;3250,3114
3250;5697904;2417497;3138,3246,0350
3246;5697865;2417484;3250,3115,0038
3115;5697734;2417206;3137,3246;A/S "Vidzemes maiznīca"
3137;5697724;2417186;3115,0455,0085
3111;5698432;2420266;3141,3110;Alfa
3141;5698428;2420233;3111,0007
3113;5698150;2418445;3139;Džutas iela
3139;5698121;2418345;3113,0028,0207
3116;5697387;2416646;3136,0400;Gustava Zemgala gatve
3136;5697398;2416667;3116,0419,0086
3112;5698336;2419456;3140;Krustabaznīcas iela
3140;5698327;2419414;3249,3112,0221
3249;5698325;2419399;3140
3191;5691967;2409788;3204,3190;Viesītes iela;;Bauskas iela;;Torņakalns
3204;5692028;2409732;3191,1269,1335,1276
3195;5693049;2408704;3200,5022;Torņakalna stacija;;Friča Brīvzemnieka iela
3200;5693017;2408835;3195,3201
3192;5692118;2408945;1357,3202;Vienības gatve/Bērnu slimnīca;;Tipogrāfijas iela
3193;5692388;2408988;2051,3202;Jelgavas iela;;Vienības gatve
3202;5692366;2408979;3193,3192,5023;Jelgavas iela/Bērnu slimnīca
3194;5692736;2409073;3201,1363;Satiksmes iela
3201;5692760;2409078;3194,3200
3203;5692008;2408890;1357,5331;Telts iela
3009;5694570;2410606;3012,1025a;Grēcinieku iela;;11.novembra krastmala;;Vecrīga
3012;5694595;2410565;5003,3009,2054
3010;5694604;2411387;1025b;13.janvāra iela;;13.janvāra iela
3021;5694213;2405219;3000,3030,1415;Zasulauka stacija;;Āgenskalna iela;;Zasulauks
3001;5694082;2405733;3020,3000,5288;Kalnciema iela;;Margrietas iela
3020;5694045;2405755;3001,3019
3000;5694190;2405316;3021,3001;Zasulauka stacija;;Mazā Nometņu iela
3022;5694602;2404854;3030,3023,0647;Elvīras iela;;Tapešu iela
3030;5694592;2404862;3022,3021
3023;5694884;2404693;3029,3022;Kandavas iela
3029;5694898;2404685;3023,3024
3188;5691369;2411849;1277,1278;Mazā Stērstu iela;;Bauskas iela;;Ziepniekkalns
3207;5691381;2411626;1277,1272,2116
3190;5691788;2410343;1275,3191;Skaistkalnes iela
3205;5691770;2410400;1274,3189
3189;5691513;2411186;3206,3205,2110;Stērstu iela/CSDD
3206;5691495;2411233;1273,3189
3187;5691514;2412305;1279,3209;Ziepniekkalna iela
3208;5691402;2412143;1278,1328
